{
"type": "FeatureCollection",
"name": "Elevasi",
"crs": { "type": "name", "properties": { "name": "urn:ogc:def:crs:OGC:1.3:CRS84" } },
"features": [
{ "type": "Feature", "properties": { "fid": 16.0, "Skor_Eleva": 5 }, "geometry": { "type": "MultiPolygon", "coordinates": [ [ [ [ 116.099644971245908, -8.556188705647058 ], [ 116.100194050704914, -8.556188705647058 ], [ 116.100194050704914, -8.5564636684375 ], [ 116.099919510975411, -8.5564636684375 ], [ 116.099919510975411, -8.55673863122794 ], [ 116.099644971245908, -8.55673863122794 ], [ 116.099644971245908, -8.557288556808823 ], [ 116.099370431516391, -8.557288556808823 ], [ 116.099370431516391, -8.557838482389705 ], [ 116.099095891786888, -8.557838482389705 ], [ 116.099095891786888, -8.558388407970588 ], [ 116.098821352057371, -8.558388407970588 ], [ 116.098821352057371, -8.560313147503676 ], [ 116.098546812327868, -8.560313147503676 ], [ 116.098546812327868, -8.561138035875 ], [ 116.098272272598365, -8.561138035875 ], [ 116.098272272598365, -8.561687961455881 ], [ 116.097997732868848, -8.561687961455881 ], [ 116.097997732868848, -8.562512849827206 ], [ 116.097723193139345, -8.562512849827206 ], [ 116.097723193139345, -8.563062775408088 ], [ 116.097448653409842, -8.563062775408088 ], [ 116.097448653409842, -8.563337738198529 ], [ 116.097723193139345, -8.563337738198529 ], [ 116.097723193139345, -8.563612700988971 ], [ 116.097997732868848, -8.563612700988971 ], [ 116.097997732868848, -8.563887663779411 ], [ 116.098272272598365, -8.563887663779411 ], [ 116.098272272598365, -8.564437589360294 ], [ 116.098546812327868, -8.564437589360294 ], [ 116.098546812327868, -8.564712552150734 ], [ 116.098821352057371, -8.564712552150734 ], [ 116.098821352057371, -8.564987514941176 ], [ 116.099095891786888, -8.564987514941176 ], [ 116.099095891786888, -8.565262477731617 ], [ 116.099370431516391, -8.565262477731617 ], [ 116.099370431516391, -8.565537440522059 ], [ 116.099644971245908, -8.565537440522059 ], [ 116.099644971245908, -8.565812403312499 ], [ 116.099919510975411, -8.565812403312499 ], [ 116.099919510975411, -8.566087366102941 ], [ 116.100194050704914, -8.566087366102941 ], [ 116.100194050704914, -8.566362328893382 ], [ 116.100468590434431, -8.566362328893382 ], [ 116.100468590434431, -8.566637291683824 ], [ 116.100743130163934, -8.566637291683824 ], [ 116.100743130163934, -8.567462180055147 ], [ 116.100468590434431, -8.567462180055147 ], [ 116.100468590434431, -8.569661882378677 ], [ 116.101017669893437, -8.569661882378677 ], [ 116.101017669893437, -8.569936845169117 ], [ 116.101566749352457, -8.569936845169117 ], [ 116.101566749352457, -8.570211807959559 ], [ 116.101841289081975, -8.570211807959559 ], [ 116.101841289081975, -8.57048677075 ], [ 116.102115828811478, -8.57048677075 ], [ 116.102115828811478, -8.57076173354044 ], [ 116.102939448, -8.57076173354044 ], [ 116.102939448, -8.571036696330882 ], [ 116.103488527459021, -8.571036696330882 ], [ 116.103488527459021, -8.571311659121323 ], [ 116.105135765836067, -8.571311659121323 ], [ 116.105135765836067, -8.571586621911765 ], [ 116.10541030556557, -8.571586621911765 ], [ 116.10541030556557, -8.571861584702205 ], [ 116.105684845295087, -8.571861584702205 ], [ 116.105684845295087, -8.57268647307353 ], [ 116.10595938502459, -8.57268647307353 ], [ 116.10595938502459, -8.573511361444853 ], [ 116.106233924754093, -8.573511361444853 ], [ 116.106233924754093, -8.574336249816175 ], [ 116.10595938502459, -8.574336249816175 ], [ 116.10595938502459, -8.574886175397058 ], [ 116.105684845295087, -8.574886175397058 ], [ 116.105684845295087, -8.575436100977941 ], [ 116.10541030556557, -8.575436100977941 ], [ 116.10541030556557, -8.576260989349265 ], [ 116.105135765836067, -8.576260989349265 ], [ 116.105135765836067, -8.576535952139706 ], [ 116.104861226106564, -8.576535952139706 ], [ 116.104861226106564, -8.576810914930146 ], [ 116.104586686377047, -8.576810914930146 ], [ 116.104586686377047, -8.577085877720588 ], [ 116.104312146647544, -8.577085877720588 ], [ 116.104312146647544, -8.577360840511028 ], [ 116.104037606918027, -8.577360840511028 ], [ 116.104037606918027, -8.577635803301471 ], [ 116.103763067188524, -8.577635803301471 ], [ 116.103763067188524, -8.577910766091911 ], [ 116.103488527459021, -8.577910766091911 ], [ 116.103488527459021, -8.578185728882353 ], [ 116.102939448, -8.578185728882353 ], [ 116.102939448, -8.578460691672793 ], [ 116.102390368540981, -8.578460691672793 ], [ 116.102390368540981, -8.579285580044118 ], [ 116.102115828811478, -8.579285580044118 ], [ 116.102115828811478, -8.579835505624999 ], [ 116.101841289081975, -8.579835505624999 ], [ 116.101841289081975, -8.580385431205881 ], [ 116.101566749352457, -8.580385431205881 ], [ 116.101566749352457, -8.580660393996324 ], [ 116.101292209622954, -8.580660393996324 ], [ 116.101292209622954, -8.580935356786764 ], [ 116.100194050704914, -8.580935356786764 ], [ 116.100194050704914, -8.581210319577206 ], [ 116.099919510975411, -8.581210319577206 ], [ 116.099919510975411, -8.581760245158089 ], [ 116.099644971245908, -8.581760245158089 ], [ 116.099644971245908, -8.582310170738971 ], [ 116.099095891786888, -8.582310170738971 ], [ 116.099095891786888, -8.582585133529411 ], [ 116.098546812327868, -8.582585133529411 ], [ 116.098546812327868, -8.583959947481617 ], [ 116.098821352057371, -8.583959947481617 ], [ 116.098821352057371, -8.586159649805147 ], [ 116.099095891786888, -8.586159649805147 ], [ 116.099095891786888, -8.587809426547794 ], [ 116.098821352057371, -8.587809426547794 ], [ 116.098821352057371, -8.588359352128677 ], [ 116.098546812327868, -8.588359352128677 ], [ 116.098546812327868, -8.5891842405 ], [ 116.098272272598365, -8.5891842405 ], [ 116.098272272598365, -8.58945920329044 ], [ 116.097997732868848, -8.58945920329044 ], [ 116.097997732868848, -8.589734166080882 ], [ 116.098272272598365, -8.589734166080882 ], [ 116.098272272598365, -8.590009128871323 ], [ 116.097997732868848, -8.590009128871323 ], [ 116.097997732868848, -8.590559054452205 ], [ 116.097723193139345, -8.590559054452205 ], [ 116.097723193139345, -8.591108980033088 ], [ 116.097448653409842, -8.591108980033088 ], [ 116.097448653409842, -8.591933868404412 ], [ 116.097174113680325, -8.591933868404412 ], [ 116.097174113680325, -8.592483793985293 ], [ 116.096899573950822, -8.592483793985293 ], [ 116.096899573950822, -8.592758756775735 ], [ 116.097174113680325, -8.592758756775735 ], [ 116.097174113680325, -8.593033719566176 ], [ 116.097997732868848, -8.593033719566176 ], [ 116.097997732868848, -8.593308682356618 ], [ 116.098821352057371, -8.593308682356618 ], [ 116.098821352057371, -8.593583645147058 ], [ 116.099370431516391, -8.593583645147058 ], [ 116.099370431516391, -8.5938586079375 ], [ 116.099919510975411, -8.5938586079375 ], [ 116.099919510975411, -8.594133570727941 ], [ 116.100194050704914, -8.594133570727941 ], [ 116.100194050704914, -8.594408533518383 ], [ 116.102939448, -8.594408533518383 ], [ 116.102939448, -8.594683496308823 ], [ 116.103213987729504, -8.594683496308823 ], [ 116.103213987729504, -8.594958459099265 ], [ 116.103488527459021, -8.594958459099265 ], [ 116.103488527459021, -8.595233421889706 ], [ 116.103763067188524, -8.595233421889706 ], [ 116.103763067188524, -8.595508384680146 ], [ 116.104037606918027, -8.595508384680146 ], [ 116.104037606918027, -8.595783347470588 ], [ 116.104312146647544, -8.595783347470588 ], [ 116.104312146647544, -8.596058310261029 ], [ 116.104861226106564, -8.596058310261029 ], [ 116.104861226106564, -8.596333273051471 ], [ 116.105135765836067, -8.596333273051471 ], [ 116.105135765836067, -8.596608235841911 ], [ 116.10541030556557, -8.596608235841911 ], [ 116.10541030556557, -8.596883198632353 ], [ 116.10595938502459, -8.596883198632353 ], [ 116.10595938502459, -8.597158161422794 ], [ 116.106233924754093, -8.597158161422794 ], [ 116.106233924754093, -8.597433124213236 ], [ 116.106508464483611, -8.597433124213236 ], [ 116.106508464483611, -8.597983049794118 ], [ 116.106783004213113, -8.597983049794118 ], [ 116.106783004213113, -8.598532975375001 ], [ 116.107057543942631, -8.598532975375001 ], [ 116.107057543942631, -8.599082900955882 ], [ 116.107332083672134, -8.599082900955882 ], [ 116.107332083672134, -8.599357863746324 ], [ 116.107606623401637, -8.599357863746324 ], [ 116.107606623401637, -8.599907789327206 ], [ 116.107881163131154, -8.599907789327206 ], [ 116.107881163131154, -8.600457714908089 ], [ 116.108155702860657, -8.600457714908089 ], [ 116.108155702860657, -8.601007640488971 ], [ 116.10843024259016, -8.601007640488971 ], [ 116.10843024259016, -8.601282603279412 ], [ 116.108704782319677, -8.601282603279412 ], [ 116.108704782319677, -8.601557566069854 ], [ 116.10843024259016, -8.601557566069854 ], [ 116.10843024259016, -8.602657417231617 ], [ 116.108155702860657, -8.602657417231617 ], [ 116.108155702860657, -8.603482305602942 ], [ 116.107881163131154, -8.603482305602942 ], [ 116.107881163131154, -8.604582156764707 ], [ 116.107606623401637, -8.604582156764707 ], [ 116.107606623401637, -8.60568200792647 ], [ 116.107332083672134, -8.60568200792647 ], [ 116.107332083672134, -8.605956970716912 ], [ 116.107057543942631, -8.605956970716912 ], [ 116.107057543942631, -8.606231933507352 ], [ 116.106783004213113, -8.606231933507352 ], [ 116.106783004213113, -8.606506896297795 ], [ 116.106508464483611, -8.606506896297795 ], [ 116.106508464483611, -8.606781859088235 ], [ 116.106233924754093, -8.606781859088235 ], [ 116.106233924754093, -8.607056821878677 ], [ 116.10595938502459, -8.607056821878677 ], [ 116.10595938502459, -8.607331784669118 ], [ 116.10541030556557, -8.607331784669118 ], [ 116.10541030556557, -8.60760674745956 ], [ 116.105135765836067, -8.60760674745956 ], [ 116.105135765836067, -8.60788171025 ], [ 116.104861226106564, -8.60788171025 ], [ 116.104861226106564, -8.608431635830883 ], [ 116.104586686377047, -8.608431635830883 ], [ 116.104586686377047, -8.608706598621323 ], [ 116.104312146647544, -8.608706598621323 ], [ 116.104312146647544, -8.609256524202205 ], [ 116.104037606918027, -8.609256524202205 ], [ 116.104037606918027, -8.609531486992648 ], [ 116.103763067188524, -8.609531486992648 ], [ 116.103763067188524, -8.61008141257353 ], [ 116.103488527459021, -8.61008141257353 ], [ 116.103488527459021, -8.61035637536397 ], [ 116.103213987729504, -8.61035637536397 ], [ 116.103213987729504, -8.612281114897058 ], [ 116.102939448, -8.612281114897058 ], [ 116.102939448, -8.613380966058823 ], [ 116.102664908270498, -8.613380966058823 ], [ 116.102664908270498, -8.613930891639706 ], [ 116.102390368540981, -8.613930891639706 ], [ 116.102390368540981, -8.614205854430146 ], [ 116.102115828811478, -8.614205854430146 ], [ 116.102115828811478, -8.614755780011029 ], [ 116.101841289081975, -8.614755780011029 ], [ 116.101841289081975, -8.615030742801471 ], [ 116.101566749352457, -8.615030742801471 ], [ 116.101566749352457, -8.615305705591911 ], [ 116.101292209622954, -8.615305705591911 ], [ 116.101292209622954, -8.616130593963236 ], [ 116.101566749352457, -8.616130593963236 ], [ 116.101566749352457, -8.616680519544119 ], [ 116.101841289081975, -8.616680519544119 ], [ 116.101841289081975, -8.616955482334559 ], [ 116.102115828811478, -8.616955482334559 ], [ 116.102115828811478, -8.617505407915441 ], [ 116.102390368540981, -8.617505407915441 ], [ 116.102390368540981, -8.617780370705882 ], [ 116.102664908270498, -8.617780370705882 ], [ 116.102664908270498, -8.618055333496324 ], [ 116.102939448, -8.618055333496324 ], [ 116.102939448, -8.618330296286764 ], [ 116.103213987729504, -8.618330296286764 ], [ 116.103213987729504, -8.620804961400735 ], [ 116.102664908270498, -8.620804961400735 ], [ 116.102664908270498, -8.621079924191177 ], [ 116.102115828811478, -8.621079924191177 ], [ 116.102115828811478, -8.621354886981617 ], [ 116.101566749352457, -8.621354886981617 ], [ 116.101566749352457, -8.621629849772059 ], [ 116.101292209622954, -8.621629849772059 ], [ 116.101292209622954, -8.6219048125625 ], [ 116.100743130163934, -8.6219048125625 ], [ 116.100743130163934, -8.622179775352942 ], [ 116.100468590434431, -8.622179775352942 ], [ 116.100468590434431, -8.622454738143382 ], [ 116.099919510975411, -8.622454738143382 ], [ 116.099919510975411, -8.622729700933824 ], [ 116.101841289081975, -8.622729700933824 ], [ 116.101841289081975, -8.623004663724265 ], [ 116.104312146647544, -8.623004663724265 ], [ 116.104312146647544, -8.623279626514707 ], [ 116.102664908270498, -8.623279626514707 ], [ 116.102664908270498, -8.623554589305147 ], [ 116.101017669893437, -8.623554589305147 ], [ 116.101017669893437, -8.623829552095588 ], [ 116.099370431516391, -8.623829552095588 ], [ 116.099370431516391, -8.62410451488603 ], [ 116.097997732868848, -8.62410451488603 ], [ 116.097997732868848, -8.62437947767647 ], [ 116.096350494491801, -8.62437947767647 ], [ 116.096350494491801, -8.624654440466912 ], [ 116.094703256114755, -8.624654440466912 ], [ 116.094703256114755, -8.624929403257353 ], [ 116.093056017737709, -8.624929403257353 ], [ 116.093056017737709, -8.625204366047795 ], [ 116.091408779360663, -8.625204366047795 ], [ 116.091408779360663, -8.625479328838235 ], [ 116.090585160172125, -8.625479328838235 ], [ 116.090585160172125, -8.624929403257353 ], [ 116.090310620442622, -8.624929403257353 ], [ 116.090310620442622, -8.622729700933824 ], [ 116.090036080713119, -8.622729700933824 ], [ 116.090036080713119, -8.620529998610294 ], [ 116.089761540983602, -8.620529998610294 ], [ 116.089761540983602, -8.618055333496324 ], [ 116.089487001254099, -8.618055333496324 ], [ 116.089487001254099, -8.615855631172794 ], [ 116.089212461524596, -8.615855631172794 ], [ 116.089212461524596, -8.613655928849266 ], [ 116.088937921795079, -8.613655928849266 ], [ 116.088937921795079, -8.611181263735293 ], [ 116.088663382065576, -8.611181263735293 ], [ 116.088663382065576, -8.608981561411765 ], [ 116.088388842336059, -8.608981561411765 ], [ 116.088388842336059, -8.606781859088235 ], [ 116.088114302606556, -8.606781859088235 ], [ 116.088114302606556, -8.604307193974265 ], [ 116.087839762877053, -8.604307193974265 ], [ 116.087839762877053, -8.602107491650735 ], [ 116.087565223147536, -8.602107491650735 ], [ 116.087565223147536, -8.599907789327206 ], [ 116.087290683418033, -8.599907789327206 ], [ 116.087290683418033, -8.597433124213236 ], [ 116.08701614368853, -8.597433124213236 ], [ 116.08701614368853, -8.595233421889706 ], [ 116.086741603959013, -8.595233421889706 ], [ 116.086741603959013, -8.59138394282353 ], [ 116.08646706422951, -8.59138394282353 ], [ 116.08646706422951, -8.587534463757352 ], [ 116.086192524500007, -8.587534463757352 ], [ 116.086192524500007, -8.583684984691176 ], [ 116.085917984770489, -8.583684984691176 ], [ 116.085917984770489, -8.579560542834558 ], [ 116.085643445040986, -8.579560542834558 ], [ 116.085643445040986, -8.576810914930146 ], [ 116.085917984770489, -8.576810914930146 ], [ 116.085917984770489, -8.5751611381875 ], [ 116.086192524500007, -8.5751611381875 ], [ 116.086192524500007, -8.573511361444853 ], [ 116.08646706422951, -8.573511361444853 ], [ 116.08646706422951, -8.571861584702205 ], [ 116.086741603959013, -8.571861584702205 ], [ 116.086741603959013, -8.570211807959559 ], [ 116.08701614368853, -8.570211807959559 ], [ 116.08701614368853, -8.568562031216912 ], [ 116.087290683418033, -8.568562031216912 ], [ 116.087290683418033, -8.566912254474264 ], [ 116.087565223147536, -8.566912254474264 ], [ 116.087565223147536, -8.565537440522059 ], [ 116.087839762877053, -8.565537440522059 ], [ 116.087839762877053, -8.564437589360294 ], [ 116.088114302606556, -8.564437589360294 ], [ 116.088114302606556, -8.563612700988971 ], [ 116.088388842336059, -8.563612700988971 ], [ 116.088388842336059, -8.562512849827206 ], [ 116.088663382065576, -8.562512849827206 ], [ 116.088663382065576, -8.561687961455881 ], [ 116.088937921795079, -8.561687961455881 ], [ 116.088937921795079, -8.560863073084558 ], [ 116.089212461524596, -8.560863073084558 ], [ 116.089212461524596, -8.560038184713235 ], [ 116.089487001254099, -8.560038184713235 ], [ 116.089487001254099, -8.559763221922793 ], [ 116.089761540983602, -8.559763221922793 ], [ 116.089761540983602, -8.559488259132353 ], [ 116.090036080713119, -8.559488259132353 ], [ 116.090036080713119, -8.559213296341911 ], [ 116.090310620442622, -8.559213296341911 ], [ 116.090310620442622, -8.55893833355147 ], [ 116.090585160172125, -8.55893833355147 ], [ 116.090585160172125, -8.558663370761028 ], [ 116.090859699901642, -8.558663370761028 ], [ 116.090859699901642, -8.558388407970588 ], [ 116.091134239631145, -8.558388407970588 ], [ 116.091134239631145, -8.558113445180146 ], [ 116.091408779360663, -8.558113445180146 ], [ 116.091408779360663, -8.557838482389705 ], [ 116.091683319090166, -8.557838482389705 ], [ 116.091683319090166, -8.557563519599265 ], [ 116.091957858819669, -8.557563519599265 ], [ 116.091957858819669, -8.557288556808823 ], [ 116.093605097196715, -8.557288556808823 ], [ 116.093605097196715, -8.557013594018382 ], [ 116.095801415032781, -8.557013594018382 ], [ 116.095801415032781, -8.55673863122794 ], [ 116.097723193139345, -8.55673863122794 ], [ 116.097723193139345, -8.5564636684375 ], [ 116.099644971245908, -8.5564636684375 ], [ 116.099644971245908, -8.556188705647058 ] ] ] ] } },
{ "type": "Feature", "properties": { "fid": 11.0, "Skor_Eleva": 3 }, "geometry": { "type": "MultiPolygon", "coordinates": [ [ [ [ 116.151532980122951, -8.610631338154413 ], [ 116.151532980122951, -8.61035637536397 ], [ 116.151807519852468, -8.61035637536397 ], [ 116.151807519852468, -8.610631338154413 ], [ 116.151532980122951, -8.610631338154413 ] ] ], [ [ [ 116.152082059581971, -8.61008141257353 ], [ 116.152082059581971, -8.61035637536397 ], [ 116.151807519852468, -8.61035637536397 ], [ 116.151807519852468, -8.61008141257353 ], [ 116.152082059581971, -8.61008141257353 ] ] ], [ [ [ 116.152082059581971, -8.61008141257353 ], [ 116.152082059581971, -8.609806449783088 ], [ 116.152356599311474, -8.609806449783088 ], [ 116.152356599311474, -8.61008141257353 ], [ 116.152082059581971, -8.61008141257353 ] ] ], [ [ [ 116.152631139040992, -8.609531486992648 ], [ 116.152631139040992, -8.608981561411765 ], [ 116.152905678770495, -8.608981561411765 ], [ 116.152905678770495, -8.608706598621323 ], [ 116.152082059581971, -8.608706598621323 ], [ 116.152082059581971, -8.608981561411765 ], [ 116.148513043098362, -8.608981561411765 ], [ 116.148513043098362, -8.608706598621323 ], [ 116.147963963639342, -8.608706598621323 ], [ 116.147963963639342, -8.608431635830883 ], [ 116.147689423909839, -8.608431635830883 ], [ 116.147689423909839, -8.60815667304044 ], [ 116.147414884180336, -8.60815667304044 ], [ 116.147414884180336, -8.60760674745956 ], [ 116.147140344450818, -8.60760674745956 ], [ 116.147140344450818, -8.607056821878677 ], [ 116.146865804721315, -8.607056821878677 ], [ 116.146865804721315, -8.606506896297795 ], [ 116.146591264991812, -8.606506896297795 ], [ 116.146591264991812, -8.605956970716912 ], [ 116.146316725262295, -8.605956970716912 ], [ 116.146316725262295, -8.60540704513603 ], [ 116.146042185532792, -8.60540704513603 ], [ 116.146042185532792, -8.604857119555147 ], [ 116.145767645803289, -8.604857119555147 ], [ 116.145767645803289, -8.602382454441177 ], [ 116.145493106073772, -8.602382454441177 ], [ 116.145493106073772, -8.602107491650735 ], [ 116.145218566344269, -8.602107491650735 ], [ 116.145218566344269, -8.601832528860294 ], [ 116.144669486885249, -8.601832528860294 ], [ 116.144669486885249, -8.601557566069854 ], [ 116.144394947155746, -8.601557566069854 ], [ 116.144394947155746, -8.601282603279412 ], [ 116.144120407426229, -8.601282603279412 ], [ 116.144120407426229, -8.600732677698529 ], [ 116.143845867696726, -8.600732677698529 ], [ 116.143845867696726, -8.600457714908089 ], [ 116.143571327967223, -8.600457714908089 ], [ 116.143571327967223, -8.600182752117647 ], [ 116.143296788237706, -8.600182752117647 ], [ 116.143296788237706, -8.599632826536764 ], [ 116.143022248508203, -8.599632826536764 ], [ 116.143022248508203, -8.599357863746324 ], [ 116.142747708778685, -8.599357863746324 ], [ 116.142747708778685, -8.599082900955882 ], [ 116.142473169049183, -8.599082900955882 ], [ 116.142473169049183, -8.598532975375001 ], [ 116.14219862931968, -8.598532975375001 ], [ 116.14219862931968, -8.598258012584559 ], [ 116.141924089590162, -8.598258012584559 ], [ 116.141924089590162, -8.597708087003676 ], [ 116.141649549860659, -8.597708087003676 ], [ 116.141649549860659, -8.597433124213236 ], [ 116.141375010131156, -8.597433124213236 ], [ 116.141375010131156, -8.597158161422794 ], [ 116.141100470401639, -8.597158161422794 ], [ 116.141100470401639, -8.596883198632353 ], [ 116.140825930672136, -8.596883198632353 ], [ 116.140825930672136, -8.596608235841911 ], [ 116.140551390942633, -8.596608235841911 ], [ 116.140551390942633, -8.596333273051471 ], [ 116.140276851213116, -8.596333273051471 ], [ 116.140276851213116, -8.596058310261029 ], [ 116.140002311483613, -8.596058310261029 ], [ 116.140002311483613, -8.595783347470588 ], [ 116.139727771754096, -8.595783347470588 ], [ 116.139727771754096, -8.595508384680146 ], [ 116.139453232024593, -8.595508384680146 ], [ 116.139453232024593, -8.595233421889706 ], [ 116.13917869229509, -8.595233421889706 ], [ 116.13917869229509, -8.594958459099265 ], [ 116.138904152565573, -8.594958459099265 ], [ 116.138904152565573, -8.594408533518383 ], [ 116.13862961283607, -8.594408533518383 ], [ 116.13862961283607, -8.594133570727941 ], [ 116.138355073106567, -8.594133570727941 ], [ 116.138355073106567, -8.5938586079375 ], [ 116.13808053337705, -8.5938586079375 ], [ 116.13808053337705, -8.593583645147058 ], [ 116.137805993647547, -8.593583645147058 ], [ 116.137805993647547, -8.593308682356618 ], [ 116.137531453918029, -8.593308682356618 ], [ 116.137531453918029, -8.593033719566176 ], [ 116.137256914188526, -8.593033719566176 ], [ 116.137256914188526, -8.592758756775735 ], [ 116.136982374459024, -8.592758756775735 ], [ 116.136982374459024, -8.592483793985293 ], [ 116.136433295, -8.592483793985293 ], [ 116.136433295, -8.592208831194853 ], [ 116.1361587552705, -8.592208831194853 ], [ 116.1361587552705, -8.591933868404412 ], [ 116.135884215540983, -8.591933868404412 ], [ 116.135884215540983, -8.59165890561397 ], [ 116.13560967581148, -8.59165890561397 ], [ 116.13560967581148, -8.59138394282353 ], [ 116.135335136081977, -8.59138394282353 ], [ 116.135335136081977, -8.591108980033088 ], [ 116.13506059635246, -8.591108980033088 ], [ 116.13506059635246, -8.590834017242647 ], [ 116.134786056622957, -8.590834017242647 ], [ 116.134786056622957, -8.590559054452205 ], [ 116.13451151689344, -8.590559054452205 ], [ 116.13451151689344, -8.590009128871323 ], [ 116.134236977163937, -8.590009128871323 ], [ 116.134236977163937, -8.589734166080882 ], [ 116.133962437434434, -8.589734166080882 ], [ 116.133962437434434, -8.58945920329044 ], [ 116.133687897704917, -8.58945920329044 ], [ 116.133687897704917, -8.588909277709559 ], [ 116.133962437434434, -8.588909277709559 ], [ 116.133962437434434, -8.588084389338235 ], [ 116.134236977163937, -8.588084389338235 ], [ 116.134236977163937, -8.587259500966912 ], [ 116.13451151689344, -8.587259500966912 ], [ 116.13451151689344, -8.586709575386029 ], [ 116.134786056622957, -8.586709575386029 ], [ 116.134786056622957, -8.585884687014707 ], [ 116.13506059635246, -8.585884687014707 ], [ 116.13506059635246, -8.585059798643382 ], [ 116.135335136081977, -8.585059798643382 ], [ 116.135335136081977, -8.584509873062499 ], [ 116.13560967581148, -8.584509873062499 ], [ 116.13560967581148, -8.583684984691176 ], [ 116.133138818245911, -8.583684984691176 ], [ 116.133138818245911, -8.583410021900734 ], [ 116.13149157986885, -8.583410021900734 ], [ 116.13149157986885, -8.583135059110294 ], [ 116.131217040139347, -8.583135059110294 ], [ 116.131217040139347, -8.582860096319854 ], [ 116.130942500409844, -8.582860096319854 ], [ 116.130942500409844, -8.582585133529411 ], [ 116.130667960680327, -8.582585133529411 ], [ 116.130667960680327, -8.582310170738971 ], [ 116.130393420950824, -8.582310170738971 ], [ 116.130393420950824, -8.582035207948529 ], [ 116.129844341491804, -8.582035207948529 ], [ 116.129844341491804, -8.581760245158089 ], [ 116.128197103114758, -8.581760245158089 ], [ 116.128197103114758, -8.580660393996324 ], [ 116.127922563385255, -8.580660393996324 ], [ 116.127922563385255, -8.579560542834558 ], [ 116.127648023655738, -8.579560542834558 ], [ 116.127648023655738, -8.578460691672793 ], [ 116.127373483926235, -8.578460691672793 ], [ 116.127373483926235, -8.577360840511028 ], [ 116.127098944196717, -8.577360840511028 ], [ 116.127098944196717, -8.576260989349265 ], [ 116.126824404467214, -8.576260989349265 ], [ 116.126824404467214, -8.5751611381875 ], [ 116.126549864737711, -8.5751611381875 ], [ 116.126549864737711, -8.574061287025735 ], [ 116.126824404467214, -8.574061287025735 ], [ 116.126824404467214, -8.573786324235293 ], [ 116.127373483926235, -8.573786324235293 ], [ 116.127373483926235, -8.573511361444853 ], [ 116.127922563385255, -8.573511361444853 ], [ 116.127922563385255, -8.573236398654412 ], [ 116.128471642844261, -8.573236398654412 ], [ 116.128471642844261, -8.57296143586397 ], [ 116.129295262032784, -8.57296143586397 ], [ 116.129295262032784, -8.57268647307353 ], [ 116.129844341491804, -8.57268647307353 ], [ 116.129844341491804, -8.572411510283088 ], [ 116.133138818245911, -8.572411510283088 ], [ 116.133138818245911, -8.57268647307353 ], [ 116.133413357975414, -8.57268647307353 ], [ 116.133413357975414, -8.572411510283088 ], [ 116.133962437434434, -8.572411510283088 ], [ 116.133962437434434, -8.571861584702205 ], [ 116.133687897704917, -8.571861584702205 ], [ 116.133687897704917, -8.571586621911765 ], [ 116.133138818245911, -8.571586621911765 ], [ 116.133138818245911, -8.571861584702205 ], [ 116.131217040139347, -8.571861584702205 ], [ 116.131217040139347, -8.571586621911765 ], [ 116.130118881221321, -8.571586621911765 ], [ 116.130118881221321, -8.571311659121323 ], [ 116.129844341491804, -8.571311659121323 ], [ 116.129844341491804, -8.571036696330882 ], [ 116.129569801762301, -8.571036696330882 ], [ 116.129569801762301, -8.57048677075 ], [ 116.129295262032784, -8.57048677075 ], [ 116.129295262032784, -8.569661882378677 ], [ 116.129020722303281, -8.569661882378677 ], [ 116.129020722303281, -8.568836994007352 ], [ 116.128746182573778, -8.568836994007352 ], [ 116.128746182573778, -8.56828706842647 ], [ 116.128197103114758, -8.56828706842647 ], [ 116.128197103114758, -8.568012105636029 ], [ 116.127648023655738, -8.568012105636029 ], [ 116.127648023655738, -8.567737142845587 ], [ 116.127373483926235, -8.567737142845587 ], [ 116.127373483926235, -8.567462180055147 ], [ 116.127098944196717, -8.567462180055147 ], [ 116.127098944196717, -8.566912254474264 ], [ 116.126824404467214, -8.566912254474264 ], [ 116.126824404467214, -8.565812403312499 ], [ 116.127098944196717, -8.565812403312499 ], [ 116.127098944196717, -8.564987514941176 ], [ 116.127373483926235, -8.564987514941176 ], [ 116.127373483926235, -8.564162626569853 ], [ 116.127098944196717, -8.564162626569853 ], [ 116.127098944196717, -8.563887663779411 ], [ 116.126275325008194, -8.563887663779411 ], [ 116.126275325008194, -8.563612700988971 ], [ 116.125451705819671, -8.563612700988971 ], [ 116.125451705819671, -8.563337738198529 ], [ 116.124628086631148, -8.563337738198529 ], [ 116.124628086631148, -8.563062775408088 ], [ 116.124079007172128, -8.563062775408088 ], [ 116.124079007172128, -8.562787812617646 ], [ 116.123255387983605, -8.562787812617646 ], [ 116.123255387983605, -8.562512849827206 ], [ 116.122980848254102, -8.562512849827206 ], [ 116.122980848254102, -8.562237887036764 ], [ 116.123255387983605, -8.562237887036764 ], [ 116.123255387983605, -8.561962924246323 ], [ 116.123529927713122, -8.561962924246323 ], [ 116.123529927713122, -8.561687961455881 ], [ 116.123804467442625, -8.561687961455881 ], [ 116.123804467442625, -8.561412998665441 ], [ 116.124079007172128, -8.561412998665441 ], [ 116.124079007172128, -8.561138035875 ], [ 116.124353546901645, -8.561138035875 ], [ 116.124353546901645, -8.560863073084558 ], [ 116.124628086631148, -8.560863073084558 ], [ 116.124628086631148, -8.560588110294118 ], [ 116.124902626360665, -8.560588110294118 ], [ 116.124902626360665, -8.560863073084558 ], [ 116.125726245549188, -8.560863073084558 ], [ 116.125726245549188, -8.561138035875 ], [ 116.126549864737711, -8.561138035875 ], [ 116.126549864737711, -8.561412998665441 ], [ 116.127373483926235, -8.561412998665441 ], [ 116.127373483926235, -8.561687961455881 ], [ 116.127922563385255, -8.561687961455881 ], [ 116.127922563385255, -8.561962924246323 ], [ 116.128746182573778, -8.561962924246323 ], [ 116.128746182573778, -8.562237887036764 ], [ 116.129569801762301, -8.562237887036764 ], [ 116.129569801762301, -8.562512849827206 ], [ 116.130118881221321, -8.562512849827206 ], [ 116.130118881221321, -8.562787812617646 ], [ 116.130942500409844, -8.562787812617646 ], [ 116.130942500409844, -8.563062775408088 ], [ 116.131766119598367, -8.563062775408088 ], [ 116.131766119598367, -8.563337738198529 ], [ 116.132315199057373, -8.563337738198529 ], [ 116.132315199057373, -8.563612700988971 ], [ 116.133138818245911, -8.563612700988971 ], [ 116.133138818245911, -8.563887663779411 ], [ 116.133962437434434, -8.563887663779411 ], [ 116.133962437434434, -8.564162626569853 ], [ 116.13451151689344, -8.564162626569853 ], [ 116.13451151689344, -8.564437589360294 ], [ 116.135335136081977, -8.564437589360294 ], [ 116.135335136081977, -8.564712552150734 ], [ 116.1361587552705, -8.564712552150734 ], [ 116.1361587552705, -8.564987514941176 ], [ 116.136982374459024, -8.564987514941176 ], [ 116.136982374459024, -8.565262477731617 ], [ 116.137531453918029, -8.565262477731617 ], [ 116.137531453918029, -8.565537440522059 ], [ 116.138355073106567, -8.565537440522059 ], [ 116.138355073106567, -8.565812403312499 ], [ 116.13862961283607, -8.565812403312499 ], [ 116.13862961283607, -8.566087366102941 ], [ 116.13917869229509, -8.566087366102941 ], [ 116.13917869229509, -8.566362328893382 ], [ 116.139727771754096, -8.566362328893382 ], [ 116.139727771754096, -8.566637291683824 ], [ 116.140002311483613, -8.566637291683824 ], [ 116.140002311483613, -8.566912254474264 ], [ 116.140551390942633, -8.566912254474264 ], [ 116.140551390942633, -8.567187217264706 ], [ 116.141100470401639, -8.567187217264706 ], [ 116.141100470401639, -8.567462180055147 ], [ 116.141375010131156, -8.567462180055147 ], [ 116.141375010131156, -8.567737142845587 ], [ 116.141924089590162, -8.567737142845587 ], [ 116.141924089590162, -8.568012105636029 ], [ 116.142473169049183, -8.568012105636029 ], [ 116.142473169049183, -8.56828706842647 ], [ 116.143022248508203, -8.56828706842647 ], [ 116.143022248508203, -8.568562031216912 ], [ 116.143296788237706, -8.568562031216912 ], [ 116.143296788237706, -8.568836994007352 ], [ 116.143845867696726, -8.568836994007352 ], [ 116.143845867696726, -8.569111956797794 ], [ 116.144120407426229, -8.569111956797794 ], [ 116.144120407426229, -8.569386919588235 ], [ 116.144669486885249, -8.569386919588235 ], [ 116.144669486885249, -8.569661882378677 ], [ 116.144944026614752, -8.569661882378677 ], [ 116.144944026614752, -8.569936845169117 ], [ 116.145493106073772, -8.569936845169117 ], [ 116.145493106073772, -8.570211807959559 ], [ 116.146042185532792, -8.570211807959559 ], [ 116.146042185532792, -8.57048677075 ], [ 116.146316725262295, -8.57048677075 ], [ 116.146316725262295, -8.57076173354044 ], [ 116.146865804721315, -8.57076173354044 ], [ 116.146865804721315, -8.571036696330882 ], [ 116.147140344450818, -8.571036696330882 ], [ 116.147140344450818, -8.571311659121323 ], [ 116.147689423909839, -8.571311659121323 ], [ 116.147689423909839, -8.571586621911765 ], [ 116.147963963639342, -8.571586621911765 ], [ 116.147963963639342, -8.571861584702205 ], [ 116.148513043098362, -8.571861584702205 ], [ 116.148513043098362, -8.572136547492647 ], [ 116.148787582827879, -8.572136547492647 ], [ 116.148787582827879, -8.572411510283088 ], [ 116.149062122557382, -8.572411510283088 ], [ 116.149062122557382, -8.57268647307353 ], [ 116.149336662286885, -8.57268647307353 ], [ 116.149336662286885, -8.57296143586397 ], [ 116.149611202016402, -8.57296143586397 ], [ 116.149611202016402, -8.573236398654412 ], [ 116.149885741745905, -8.573236398654412 ], [ 116.149885741745905, -8.573511361444853 ], [ 116.150160281475408, -8.573511361444853 ], [ 116.150160281475408, -8.574061287025735 ], [ 116.150434821204925, -8.574061287025735 ], [ 116.150434821204925, -8.574336249816175 ], [ 116.150709360934428, -8.574336249816175 ], [ 116.150709360934428, -8.574611212606618 ], [ 116.150983900663945, -8.574611212606618 ], [ 116.150983900663945, -8.574886175397058 ], [ 116.151258440393448, -8.574886175397058 ], [ 116.151258440393448, -8.5751611381875 ], [ 116.151532980122951, -8.5751611381875 ], [ 116.151532980122951, -8.575436100977941 ], [ 116.151807519852468, -8.575436100977941 ], [ 116.151807519852468, -8.575711063768383 ], [ 116.152082059581971, -8.575711063768383 ], [ 116.152082059581971, -8.576260989349265 ], [ 116.152356599311474, -8.576260989349265 ], [ 116.152356599311474, -8.576535952139706 ], [ 116.152631139040992, -8.576535952139706 ], [ 116.152631139040992, -8.576810914930146 ], [ 116.152905678770495, -8.576810914930146 ], [ 116.152905678770495, -8.577085877720588 ], [ 116.153180218499998, -8.577085877720588 ], [ 116.153180218499998, -8.577360840511028 ], [ 116.153454758229515, -8.577360840511028 ], [ 116.153454758229515, -8.577635803301471 ], [ 116.153729297959018, -8.577635803301471 ], [ 116.153729297959018, -8.577910766091911 ], [ 116.154003837688535, -8.577910766091911 ], [ 116.154003837688535, -8.578460691672793 ], [ 116.154278377418038, -8.578460691672793 ], [ 116.154278377418038, -8.578735654463236 ], [ 116.154552917147541, -8.578735654463236 ], [ 116.154552917147541, -8.579010617253676 ], [ 116.154827456877058, -8.579010617253676 ], [ 116.154827456877058, -8.579285580044118 ], [ 116.155101996606561, -8.579285580044118 ], [ 116.155101996606561, -8.579560542834558 ], [ 116.155376536336064, -8.579560542834558 ], [ 116.155376536336064, -8.579835505624999 ], [ 116.155651076065581, -8.579835505624999 ], [ 116.155651076065581, -8.580110468415441 ], [ 116.155925615795084, -8.580110468415441 ], [ 116.155925615795084, -8.580385431205881 ], [ 116.156200155524601, -8.580385431205881 ], [ 116.156200155524601, -8.580935356786764 ], [ 116.156474695254104, -8.580935356786764 ], [ 116.156474695254104, -8.581210319577206 ], [ 116.156749234983607, -8.581210319577206 ], [ 116.156749234983607, -8.581485282367646 ], [ 116.157023774713124, -8.581485282367646 ], [ 116.157023774713124, -8.581760245158089 ], [ 116.157298314442627, -8.581760245158089 ], [ 116.157298314442627, -8.582035207948529 ], [ 116.15757285417213, -8.582035207948529 ], [ 116.15757285417213, -8.582310170738971 ], [ 116.157847393901648, -8.582310170738971 ], [ 116.157847393901648, -8.582585133529411 ], [ 116.158121933631151, -8.582585133529411 ], [ 116.158121933631151, -8.583135059110294 ], [ 116.158396473360668, -8.583135059110294 ], [ 116.158396473360668, -8.583410021900734 ], [ 116.158671013090171, -8.583410021900734 ], [ 116.158671013090171, -8.583684984691176 ], [ 116.158945552819674, -8.583684984691176 ], [ 116.158945552819674, -8.583959947481617 ], [ 116.159220092549191, -8.583959947481617 ], [ 116.159220092549191, -8.584234910272059 ], [ 116.159494632278694, -8.584234910272059 ], [ 116.159494632278694, -8.584509873062499 ], [ 116.159769172008197, -8.584509873062499 ], [ 116.159769172008197, -8.584784835852941 ], [ 116.160043711737714, -8.584784835852941 ], [ 116.160043711737714, -8.585334761433824 ], [ 116.160318251467217, -8.585334761433824 ], [ 116.160318251467217, -8.585609724224264 ], [ 116.16059279119672, -8.585609724224264 ], [ 116.16059279119672, -8.586159649805147 ], [ 116.160867330926237, -8.586159649805147 ], [ 116.160867330926237, -8.586434612595587 ], [ 116.16114187065574, -8.586434612595587 ], [ 116.16114187065574, -8.58698453817647 ], [ 116.161416410385257, -8.58698453817647 ], [ 116.161416410385257, -8.587534463757352 ], [ 116.16169095011476, -8.587534463757352 ], [ 116.16169095011476, -8.587809426547794 ], [ 116.161965489844263, -8.587809426547794 ], [ 116.161965489844263, -8.588359352128677 ], [ 116.16224002957378, -8.588359352128677 ], [ 116.16224002957378, -8.588909277709559 ], [ 116.162514569303283, -8.588909277709559 ], [ 116.162514569303283, -8.5891842405 ], [ 116.162789109032786, -8.5891842405 ], [ 116.162789109032786, -8.589734166080882 ], [ 116.163063648762304, -8.589734166080882 ], [ 116.163063648762304, -8.590009128871323 ], [ 116.163338188491807, -8.590009128871323 ], [ 116.163338188491807, -8.590559054452205 ], [ 116.163612728221324, -8.590559054452205 ], [ 116.163612728221324, -8.591108980033088 ], [ 116.163887267950827, -8.591108980033088 ], [ 116.163887267950827, -8.59138394282353 ], [ 116.16416180768033, -8.59138394282353 ], [ 116.16416180768033, -8.59165890561397 ], [ 116.164436347409847, -8.59165890561397 ], [ 116.164436347409847, -8.592208831194853 ], [ 116.16471088713935, -8.592208831194853 ], [ 116.16471088713935, -8.592483793985293 ], [ 116.164985426868853, -8.592483793985293 ], [ 116.164985426868853, -8.593033719566176 ], [ 116.16525996659837, -8.593033719566176 ], [ 116.16525996659837, -8.594958459099265 ], [ 116.165534506327873, -8.594958459099265 ], [ 116.165534506327873, -8.596883198632353 ], [ 116.165809046057376, -8.596883198632353 ], [ 116.165809046057376, -8.597158161422794 ], [ 116.165534506327873, -8.597158161422794 ], [ 116.165534506327873, -8.597433124213236 ], [ 116.16525996659837, -8.597433124213236 ], [ 116.16525996659837, -8.597708087003676 ], [ 116.164985426868853, -8.597708087003676 ], [ 116.164985426868853, -8.597983049794118 ], [ 116.16525996659837, -8.597983049794118 ], [ 116.16525996659837, -8.598258012584559 ], [ 116.164985426868853, -8.598258012584559 ], [ 116.164985426868853, -8.598532975375001 ], [ 116.16471088713935, -8.598532975375001 ], [ 116.16471088713935, -8.598807938165441 ], [ 116.164436347409847, -8.598807938165441 ], [ 116.164436347409847, -8.599082900955882 ], [ 116.16416180768033, -8.599082900955882 ], [ 116.16416180768033, -8.599357863746324 ], [ 116.163887267950827, -8.599357863746324 ], [ 116.163887267950827, -8.599632826536764 ], [ 116.163612728221324, -8.599632826536764 ], [ 116.163612728221324, -8.599907789327206 ], [ 116.163338188491807, -8.599907789327206 ], [ 116.163338188491807, -8.600182752117647 ], [ 116.163063648762304, -8.600182752117647 ], [ 116.163063648762304, -8.600457714908089 ], [ 116.162789109032786, -8.600457714908089 ], [ 116.162789109032786, -8.600732677698529 ], [ 116.162514569303283, -8.600732677698529 ], [ 116.162514569303283, -8.601007640488971 ], [ 116.16224002957378, -8.601007640488971 ], [ 116.16224002957378, -8.601282603279412 ], [ 116.16169095011476, -8.601282603279412 ], [ 116.16169095011476, -8.601557566069854 ], [ 116.161416410385257, -8.601557566069854 ], [ 116.161416410385257, -8.601832528860294 ], [ 116.16114187065574, -8.601832528860294 ], [ 116.16114187065574, -8.602107491650735 ], [ 116.160867330926237, -8.602107491650735 ], [ 116.160867330926237, -8.602382454441177 ], [ 116.16059279119672, -8.602382454441177 ], [ 116.16059279119672, -8.602657417231617 ], [ 116.160318251467217, -8.602657417231617 ], [ 116.160318251467217, -8.602932380022059 ], [ 116.160043711737714, -8.602932380022059 ], [ 116.160043711737714, -8.6032073428125 ], [ 116.159769172008197, -8.6032073428125 ], [ 116.159769172008197, -8.603482305602942 ], [ 116.159494632278694, -8.603482305602942 ], [ 116.159494632278694, -8.603757268393382 ], [ 116.159220092549191, -8.603757268393382 ], [ 116.159220092549191, -8.604032231183824 ], [ 116.158945552819674, -8.604032231183824 ], [ 116.158945552819674, -8.604307193974265 ], [ 116.158396473360668, -8.604307193974265 ], [ 116.158396473360668, -8.604582156764707 ], [ 116.158121933631151, -8.604582156764707 ], [ 116.158121933631151, -8.604857119555147 ], [ 116.157847393901648, -8.604857119555147 ], [ 116.157847393901648, -8.605132082345587 ], [ 116.15757285417213, -8.605132082345587 ], [ 116.15757285417213, -8.60540704513603 ], [ 116.157298314442627, -8.60540704513603 ], [ 116.157298314442627, -8.60568200792647 ], [ 116.157023774713124, -8.60568200792647 ], [ 116.157023774713124, -8.605956970716912 ], [ 116.156749234983607, -8.605956970716912 ], [ 116.156749234983607, -8.606231933507352 ], [ 116.156474695254104, -8.606231933507352 ], [ 116.156474695254104, -8.606506896297795 ], [ 116.156200155524601, -8.606506896297795 ], [ 116.156200155524601, -8.606781859088235 ], [ 116.155925615795084, -8.606781859088235 ], [ 116.155925615795084, -8.607056821878677 ], [ 116.155376536336064, -8.607056821878677 ], [ 116.155376536336064, -8.607331784669118 ], [ 116.155101996606561, -8.607331784669118 ], [ 116.155101996606561, -8.60760674745956 ], [ 116.154827456877058, -8.60760674745956 ], [ 116.154827456877058, -8.60788171025 ], [ 116.154552917147541, -8.60788171025 ], [ 116.154552917147541, -8.60815667304044 ], [ 116.154278377418038, -8.60815667304044 ], [ 116.154278377418038, -8.608431635830883 ], [ 116.154003837688535, -8.608431635830883 ], [ 116.154003837688535, -8.608706598621323 ], [ 116.153729297959018, -8.608706598621323 ], [ 116.153729297959018, -8.608981561411765 ], [ 116.153454758229515, -8.608981561411765 ], [ 116.153454758229515, -8.609256524202205 ], [ 116.153180218499998, -8.609256524202205 ], [ 116.153180218499998, -8.609531486992648 ], [ 116.152905678770495, -8.609531486992648 ], [ 116.152905678770495, -8.609806449783088 ], [ 116.152356599311474, -8.609806449783088 ], [ 116.152356599311474, -8.609531486992648 ], [ 116.152631139040992, -8.609531486992648 ] ], [ [ 116.13506059635246, -8.57268647307353 ], [ 116.13506059635246, -8.57296143586397 ], [ 116.135335136081977, -8.57296143586397 ], [ 116.135335136081977, -8.573236398654412 ], [ 116.13560967581148, -8.573236398654412 ], [ 116.13560967581148, -8.573511361444853 ], [ 116.1361587552705, -8.573511361444853 ], [ 116.1361587552705, -8.573236398654412 ], [ 116.135884215540983, -8.573236398654412 ], [ 116.135884215540983, -8.57296143586397 ], [ 116.13560967581148, -8.57296143586397 ], [ 116.13560967581148, -8.57268647307353 ], [ 116.135335136081977, -8.57268647307353 ], [ 116.135335136081977, -8.572411510283088 ], [ 116.13451151689344, -8.572411510283088 ], [ 116.13451151689344, -8.57268647307353 ], [ 116.13506059635246, -8.57268647307353 ] ], [ [ 116.13862961283607, -8.573786324235293 ], [ 116.13862961283607, -8.574061287025735 ], [ 116.139453232024593, -8.574061287025735 ], [ 116.139453232024593, -8.573511361444853 ], [ 116.13917869229509, -8.573511361444853 ], [ 116.13917869229509, -8.573786324235293 ], [ 116.13862961283607, -8.573786324235293 ] ] ] ] } },
{ "type": "Feature", "properties": { "fid": 1.0, "Skor_Eleva": 4 }, "geometry": { "type": "MultiPolygon", "coordinates": [ [ [ [ 116.1095284015082, -8.555363817275735 ], [ 116.1095284015082, -8.555638780066175 ], [ 116.111450179614749, -8.555638780066175 ], [ 116.111450179614749, -8.555913742856617 ], [ 116.112273798803287, -8.555913742856617 ], [ 116.112273798803287, -8.556188705647058 ], [ 116.11309741799181, -8.556188705647058 ], [ 116.11309741799181, -8.5564636684375 ], [ 116.113921037180333, -8.5564636684375 ], [ 116.113921037180333, -8.55673863122794 ], [ 116.114744656368856, -8.55673863122794 ], [ 116.114744656368856, -8.557013594018382 ], [ 116.115293735827876, -8.557013594018382 ], [ 116.115293735827876, -8.557288556808823 ], [ 116.116117355016399, -8.557288556808823 ], [ 116.116117355016399, -8.557563519599265 ], [ 116.116940974204923, -8.557563519599265 ], [ 116.116940974204923, -8.557838482389705 ], [ 116.117764593393446, -8.557838482389705 ], [ 116.117764593393446, -8.558113445180146 ], [ 116.118313672852466, -8.558113445180146 ], [ 116.118313672852466, -8.558388407970588 ], [ 116.119137292040989, -8.558388407970588 ], [ 116.119137292040989, -8.558663370761028 ], [ 116.119960911229512, -8.558663370761028 ], [ 116.119960911229512, -8.55893833355147 ], [ 116.120509990688532, -8.55893833355147 ], [ 116.120509990688532, -8.559213296341911 ], [ 116.121333609877055, -8.559213296341911 ], [ 116.121333609877055, -8.559488259132353 ], [ 116.122157229065579, -8.559488259132353 ], [ 116.122157229065579, -8.559763221922793 ], [ 116.122706308524599, -8.559763221922793 ], [ 116.122706308524599, -8.560038184713235 ], [ 116.123529927713122, -8.560038184713235 ], [ 116.123529927713122, -8.560313147503676 ], [ 116.124353546901645, -8.560313147503676 ], [ 116.124353546901645, -8.560588110294118 ], [ 116.124628086631148, -8.560588110294118 ], [ 116.124628086631148, -8.560863073084558 ], [ 116.124353546901645, -8.560863073084558 ], [ 116.124353546901645, -8.561138035875 ], [ 116.124079007172128, -8.561138035875 ], [ 116.124079007172128, -8.561412998665441 ], [ 116.123804467442625, -8.561412998665441 ], [ 116.123804467442625, -8.561687961455881 ], [ 116.123529927713122, -8.561687961455881 ], [ 116.123529927713122, -8.561962924246323 ], [ 116.123255387983605, -8.561962924246323 ], [ 116.123255387983605, -8.562237887036764 ], [ 116.122980848254102, -8.562237887036764 ], [ 116.122980848254102, -8.562512849827206 ], [ 116.123255387983605, -8.562512849827206 ], [ 116.123255387983605, -8.562787812617646 ], [ 116.124079007172128, -8.562787812617646 ], [ 116.124079007172128, -8.563062775408088 ], [ 116.124628086631148, -8.563062775408088 ], [ 116.124628086631148, -8.563337738198529 ], [ 116.125451705819671, -8.563337738198529 ], [ 116.125451705819671, -8.563612700988971 ], [ 116.126275325008194, -8.563612700988971 ], [ 116.126275325008194, -8.563887663779411 ], [ 116.127098944196717, -8.563887663779411 ], [ 116.127098944196717, -8.564162626569853 ], [ 116.127373483926235, -8.564162626569853 ], [ 116.127373483926235, -8.564987514941176 ], [ 116.127098944196717, -8.564987514941176 ], [ 116.127098944196717, -8.565812403312499 ], [ 116.126824404467214, -8.565812403312499 ], [ 116.126824404467214, -8.566912254474264 ], [ 116.127098944196717, -8.566912254474264 ], [ 116.127098944196717, -8.567462180055147 ], [ 116.127373483926235, -8.567462180055147 ], [ 116.127373483926235, -8.567737142845587 ], [ 116.127648023655738, -8.567737142845587 ], [ 116.127648023655738, -8.568012105636029 ], [ 116.128197103114758, -8.568012105636029 ], [ 116.128197103114758, -8.56828706842647 ], [ 116.128746182573778, -8.56828706842647 ], [ 116.128746182573778, -8.568836994007352 ], [ 116.129020722303281, -8.568836994007352 ], [ 116.129020722303281, -8.569661882378677 ], [ 116.129295262032784, -8.569661882378677 ], [ 116.129295262032784, -8.57048677075 ], [ 116.129569801762301, -8.57048677075 ], [ 116.129569801762301, -8.571036696330882 ], [ 116.129844341491804, -8.571036696330882 ], [ 116.129844341491804, -8.571311659121323 ], [ 116.130118881221321, -8.571311659121323 ], [ 116.130118881221321, -8.571586621911765 ], [ 116.131217040139347, -8.571586621911765 ], [ 116.131217040139347, -8.571861584702205 ], [ 116.133138818245911, -8.571861584702205 ], [ 116.133138818245911, -8.571586621911765 ], [ 116.133687897704917, -8.571586621911765 ], [ 116.133687897704917, -8.571861584702205 ], [ 116.133962437434434, -8.571861584702205 ], [ 116.133962437434434, -8.572411510283088 ], [ 116.133413357975414, -8.572411510283088 ], [ 116.133413357975414, -8.57268647307353 ], [ 116.133138818245911, -8.57268647307353 ], [ 116.133138818245911, -8.572411510283088 ], [ 116.129844341491804, -8.572411510283088 ], [ 116.129844341491804, -8.57268647307353 ], [ 116.129295262032784, -8.57268647307353 ], [ 116.129295262032784, -8.57296143586397 ], [ 116.128471642844261, -8.57296143586397 ], [ 116.128471642844261, -8.573236398654412 ], [ 116.127922563385255, -8.573236398654412 ], [ 116.127922563385255, -8.573511361444853 ], [ 116.127373483926235, -8.573511361444853 ], [ 116.127373483926235, -8.573786324235293 ], [ 116.126824404467214, -8.573786324235293 ], [ 116.126824404467214, -8.574061287025735 ], [ 116.126549864737711, -8.574061287025735 ], [ 116.126549864737711, -8.5751611381875 ], [ 116.126824404467214, -8.5751611381875 ], [ 116.126824404467214, -8.576260989349265 ], [ 116.127098944196717, -8.576260989349265 ], [ 116.127098944196717, -8.577360840511028 ], [ 116.127373483926235, -8.577360840511028 ], [ 116.127373483926235, -8.578460691672793 ], [ 116.127648023655738, -8.578460691672793 ], [ 116.127648023655738, -8.579560542834558 ], [ 116.127922563385255, -8.579560542834558 ], [ 116.127922563385255, -8.580660393996324 ], [ 116.128197103114758, -8.580660393996324 ], [ 116.128197103114758, -8.581760245158089 ], [ 116.129844341491804, -8.581760245158089 ], [ 116.129844341491804, -8.582035207948529 ], [ 116.130393420950824, -8.582035207948529 ], [ 116.130393420950824, -8.582310170738971 ], [ 116.130667960680327, -8.582310170738971 ], [ 116.130667960680327, -8.582585133529411 ], [ 116.130942500409844, -8.582585133529411 ], [ 116.130942500409844, -8.582860096319854 ], [ 116.131217040139347, -8.582860096319854 ], [ 116.131217040139347, -8.583135059110294 ], [ 116.13149157986885, -8.583135059110294 ], [ 116.13149157986885, -8.583410021900734 ], [ 116.133138818245911, -8.583410021900734 ], [ 116.133138818245911, -8.583684984691176 ], [ 116.13560967581148, -8.583684984691176 ], [ 116.13560967581148, -8.584509873062499 ], [ 116.135335136081977, -8.584509873062499 ], [ 116.135335136081977, -8.585059798643382 ], [ 116.13506059635246, -8.585059798643382 ], [ 116.13506059635246, -8.585884687014707 ], [ 116.134786056622957, -8.585884687014707 ], [ 116.134786056622957, -8.586709575386029 ], [ 116.13451151689344, -8.586709575386029 ], [ 116.13451151689344, -8.587259500966912 ], [ 116.134236977163937, -8.587259500966912 ], [ 116.134236977163937, -8.588084389338235 ], [ 116.133962437434434, -8.588084389338235 ], [ 116.133962437434434, -8.588909277709559 ], [ 116.133687897704917, -8.588909277709559 ], [ 116.133687897704917, -8.58945920329044 ], [ 116.133962437434434, -8.58945920329044 ], [ 116.133962437434434, -8.589734166080882 ], [ 116.134236977163937, -8.589734166080882 ], [ 116.134236977163937, -8.590009128871323 ], [ 116.13451151689344, -8.590009128871323 ], [ 116.13451151689344, -8.590559054452205 ], [ 116.134786056622957, -8.590559054452205 ], [ 116.134786056622957, -8.590834017242647 ], [ 116.13506059635246, -8.590834017242647 ], [ 116.13506059635246, -8.591108980033088 ], [ 116.135335136081977, -8.591108980033088 ], [ 116.135335136081977, -8.59138394282353 ], [ 116.13560967581148, -8.59138394282353 ], [ 116.13560967581148, -8.59165890561397 ], [ 116.135884215540983, -8.59165890561397 ], [ 116.135884215540983, -8.591933868404412 ], [ 116.1361587552705, -8.591933868404412 ], [ 116.1361587552705, -8.592208831194853 ], [ 116.136433295, -8.592208831194853 ], [ 116.136433295, -8.592483793985293 ], [ 116.136982374459024, -8.592483793985293 ], [ 116.136982374459024, -8.592758756775735 ], [ 116.137256914188526, -8.592758756775735 ], [ 116.137256914188526, -8.593033719566176 ], [ 116.137531453918029, -8.593033719566176 ], [ 116.137531453918029, -8.593308682356618 ], [ 116.137805993647547, -8.593308682356618 ], [ 116.137805993647547, -8.593583645147058 ], [ 116.13808053337705, -8.593583645147058 ], [ 116.13808053337705, -8.5938586079375 ], [ 116.138355073106567, -8.5938586079375 ], [ 116.138355073106567, -8.594133570727941 ], [ 116.13862961283607, -8.594133570727941 ], [ 116.13862961283607, -8.594408533518383 ], [ 116.138904152565573, -8.594408533518383 ], [ 116.138904152565573, -8.594958459099265 ], [ 116.13917869229509, -8.594958459099265 ], [ 116.13917869229509, -8.595233421889706 ], [ 116.139453232024593, -8.595233421889706 ], [ 116.139453232024593, -8.595508384680146 ], [ 116.139727771754096, -8.595508384680146 ], [ 116.139727771754096, -8.595783347470588 ], [ 116.140002311483613, -8.595783347470588 ], [ 116.140002311483613, -8.596058310261029 ], [ 116.140276851213116, -8.596058310261029 ], [ 116.140276851213116, -8.596333273051471 ], [ 116.140551390942633, -8.596333273051471 ], [ 116.140551390942633, -8.596608235841911 ], [ 116.140825930672136, -8.596608235841911 ], [ 116.140825930672136, -8.596883198632353 ], [ 116.141100470401639, -8.596883198632353 ], [ 116.141100470401639, -8.597158161422794 ], [ 116.141375010131156, -8.597158161422794 ], [ 116.141375010131156, -8.597433124213236 ], [ 116.141649549860659, -8.597433124213236 ], [ 116.141649549860659, -8.597708087003676 ], [ 116.141924089590162, -8.597708087003676 ], [ 116.141924089590162, -8.598258012584559 ], [ 116.14219862931968, -8.598258012584559 ], [ 116.14219862931968, -8.598532975375001 ], [ 116.142473169049183, -8.598532975375001 ], [ 116.142473169049183, -8.599082900955882 ], [ 116.142747708778685, -8.599082900955882 ], [ 116.142747708778685, -8.599357863746324 ], [ 116.143022248508203, -8.599357863746324 ], [ 116.143022248508203, -8.599632826536764 ], [ 116.143296788237706, -8.599632826536764 ], [ 116.143296788237706, -8.600182752117647 ], [ 116.143571327967223, -8.600182752117647 ], [ 116.143571327967223, -8.600457714908089 ], [ 116.143845867696726, -8.600457714908089 ], [ 116.143845867696726, -8.600732677698529 ], [ 116.144120407426229, -8.600732677698529 ], [ 116.144120407426229, -8.601282603279412 ], [ 116.144394947155746, -8.601282603279412 ], [ 116.144394947155746, -8.601557566069854 ], [ 116.144669486885249, -8.601557566069854 ], [ 116.144669486885249, -8.601832528860294 ], [ 116.145218566344269, -8.601832528860294 ], [ 116.145218566344269, -8.602107491650735 ], [ 116.145493106073772, -8.602107491650735 ], [ 116.145493106073772, -8.602382454441177 ], [ 116.145767645803289, -8.602382454441177 ], [ 116.145767645803289, -8.604857119555147 ], [ 116.146042185532792, -8.604857119555147 ], [ 116.146042185532792, -8.60540704513603 ], [ 116.146316725262295, -8.60540704513603 ], [ 116.146316725262295, -8.605956970716912 ], [ 116.146591264991812, -8.605956970716912 ], [ 116.146591264991812, -8.606506896297795 ], [ 116.146865804721315, -8.606506896297795 ], [ 116.146865804721315, -8.607056821878677 ], [ 116.147140344450818, -8.607056821878677 ], [ 116.147140344450818, -8.60760674745956 ], [ 116.147414884180336, -8.60760674745956 ], [ 116.147414884180336, -8.60815667304044 ], [ 116.147689423909839, -8.60815667304044 ], [ 116.147689423909839, -8.608431635830883 ], [ 116.147963963639342, -8.608431635830883 ], [ 116.147963963639342, -8.608706598621323 ], [ 116.148513043098362, -8.608706598621323 ], [ 116.148513043098362, -8.608981561411765 ], [ 116.152082059581971, -8.608981561411765 ], [ 116.152082059581971, -8.608706598621323 ], [ 116.152905678770495, -8.608706598621323 ], [ 116.152905678770495, -8.608981561411765 ], [ 116.152631139040992, -8.608981561411765 ], [ 116.152631139040992, -8.609531486992648 ], [ 116.152356599311474, -8.609531486992648 ], [ 116.152356599311474, -8.609806449783088 ], [ 116.152082059581971, -8.609806449783088 ], [ 116.152082059581971, -8.61008141257353 ], [ 116.151807519852468, -8.61008141257353 ], [ 116.151807519852468, -8.61035637536397 ], [ 116.151532980122951, -8.61035637536397 ], [ 116.151532980122951, -8.610906300944853 ], [ 116.151258440393448, -8.610906300944853 ], [ 116.151258440393448, -8.611181263735293 ], [ 116.150983900663945, -8.611181263735293 ], [ 116.150983900663945, -8.611456226525736 ], [ 116.150434821204925, -8.611456226525736 ], [ 116.150434821204925, -8.611731189316176 ], [ 116.149611202016402, -8.611731189316176 ], [ 116.149611202016402, -8.612006152106618 ], [ 116.148787582827879, -8.612006152106618 ], [ 116.148787582827879, -8.612281114897058 ], [ 116.147689423909839, -8.612281114897058 ], [ 116.147689423909839, -8.612556077687501 ], [ 116.146591264991812, -8.612556077687501 ], [ 116.146591264991812, -8.612831040477941 ], [ 116.145767645803289, -8.612831040477941 ], [ 116.145767645803289, -8.613106003268383 ], [ 116.144669486885249, -8.613106003268383 ], [ 116.144669486885249, -8.613380966058823 ], [ 116.143571327967223, -8.613380966058823 ], [ 116.143571327967223, -8.613655928849266 ], [ 116.142473169049183, -8.613655928849266 ], [ 116.142473169049183, -8.613930891639706 ], [ 116.141649549860659, -8.613930891639706 ], [ 116.141649549860659, -8.614205854430146 ], [ 116.140551390942633, -8.614205854430146 ], [ 116.140551390942633, -8.614480817220588 ], [ 116.139453232024593, -8.614480817220588 ], [ 116.139453232024593, -8.614755780011029 ], [ 116.138355073106567, -8.614755780011029 ], [ 116.138355073106567, -8.615030742801471 ], [ 116.137531453918029, -8.615030742801471 ], [ 116.137531453918029, -8.615305705591911 ], [ 116.136433295, -8.615305705591911 ], [ 116.136433295, -8.615580668382353 ], [ 116.135335136081977, -8.615580668382353 ], [ 116.135335136081977, -8.615855631172794 ], [ 116.134236977163937, -8.615855631172794 ], [ 116.134236977163937, -8.616130593963236 ], [ 116.133413357975414, -8.616130593963236 ], [ 116.133413357975414, -8.616405556753676 ], [ 116.132315199057373, -8.616405556753676 ], [ 116.132315199057373, -8.616680519544119 ], [ 116.131217040139347, -8.616680519544119 ], [ 116.131217040139347, -8.616955482334559 ], [ 116.130118881221321, -8.616955482334559 ], [ 116.130118881221321, -8.617230445124999 ], [ 116.129295262032784, -8.617230445124999 ], [ 116.129295262032784, -8.617505407915441 ], [ 116.128197103114758, -8.617505407915441 ], [ 116.128197103114758, -8.617780370705882 ], [ 116.127098944196717, -8.617780370705882 ], [ 116.127098944196717, -8.618055333496324 ], [ 116.126000785278691, -8.618055333496324 ], [ 116.126000785278691, -8.618330296286764 ], [ 116.125177166090168, -8.618330296286764 ], [ 116.125177166090168, -8.618605259077206 ], [ 116.124079007172128, -8.618605259077206 ], [ 116.124079007172128, -8.618880221867647 ], [ 116.122980848254102, -8.618880221867647 ], [ 116.122980848254102, -8.619155184658089 ], [ 116.121882689336061, -8.619155184658089 ], [ 116.121882689336061, -8.619430147448529 ], [ 116.121059070147538, -8.619430147448529 ], [ 116.121059070147538, -8.619705110238971 ], [ 116.119960911229512, -8.619705110238971 ], [ 116.119960911229512, -8.619980073029412 ], [ 116.118862752311472, -8.619980073029412 ], [ 116.118862752311472, -8.620255035819854 ], [ 116.118039133122949, -8.620255035819854 ], [ 116.118039133122949, -8.620529998610294 ], [ 116.116940974204923, -8.620529998610294 ], [ 116.116940974204923, -8.620804961400735 ], [ 116.115842815286882, -8.620804961400735 ], [ 116.115842815286882, -8.621079924191177 ], [ 116.114744656368856, -8.621079924191177 ], [ 116.114744656368856, -8.621354886981617 ], [ 116.113921037180333, -8.621354886981617 ], [ 116.113921037180333, -8.621629849772059 ], [ 116.112273798803287, -8.621629849772059 ], [ 116.112273798803287, -8.6219048125625 ], [ 116.110626560426226, -8.6219048125625 ], [ 116.110626560426226, -8.622179775352942 ], [ 116.10897932204918, -8.622179775352942 ], [ 116.10897932204918, -8.622454738143382 ], [ 116.107332083672134, -8.622454738143382 ], [ 116.107332083672134, -8.622729700933824 ], [ 116.10595938502459, -8.622729700933824 ], [ 116.10595938502459, -8.623004663724265 ], [ 116.101841289081975, -8.623004663724265 ], [ 116.101841289081975, -8.622729700933824 ], [ 116.099919510975411, -8.622729700933824 ], [ 116.099919510975411, -8.622454738143382 ], [ 116.100468590434431, -8.622454738143382 ], [ 116.100468590434431, -8.622179775352942 ], [ 116.100743130163934, -8.622179775352942 ], [ 116.100743130163934, -8.6219048125625 ], [ 116.101292209622954, -8.6219048125625 ], [ 116.101292209622954, -8.621629849772059 ], [ 116.101566749352457, -8.621629849772059 ], [ 116.101566749352457, -8.621354886981617 ], [ 116.102115828811478, -8.621354886981617 ], [ 116.102115828811478, -8.621079924191177 ], [ 116.102664908270498, -8.621079924191177 ], [ 116.102664908270498, -8.620804961400735 ], [ 116.103213987729504, -8.620804961400735 ], [ 116.103213987729504, -8.618330296286764 ], [ 116.102939448, -8.618330296286764 ], [ 116.102939448, -8.618055333496324 ], [ 116.102664908270498, -8.618055333496324 ], [ 116.102664908270498, -8.617780370705882 ], [ 116.102390368540981, -8.617780370705882 ], [ 116.102390368540981, -8.617505407915441 ], [ 116.102115828811478, -8.617505407915441 ], [ 116.102115828811478, -8.616955482334559 ], [ 116.101841289081975, -8.616955482334559 ], [ 116.101841289081975, -8.616680519544119 ], [ 116.101566749352457, -8.616680519544119 ], [ 116.101566749352457, -8.616130593963236 ], [ 116.101292209622954, -8.616130593963236 ], [ 116.101292209622954, -8.615305705591911 ], [ 116.101566749352457, -8.615305705591911 ], [ 116.101566749352457, -8.615030742801471 ], [ 116.101841289081975, -8.615030742801471 ], [ 116.101841289081975, -8.614755780011029 ], [ 116.102115828811478, -8.614755780011029 ], [ 116.102115828811478, -8.614205854430146 ], [ 116.102390368540981, -8.614205854430146 ], [ 116.102390368540981, -8.613930891639706 ], [ 116.102664908270498, -8.613930891639706 ], [ 116.102664908270498, -8.613380966058823 ], [ 116.102939448, -8.613380966058823 ], [ 116.102939448, -8.612281114897058 ], [ 116.103213987729504, -8.612281114897058 ], [ 116.103213987729504, -8.61035637536397 ], [ 116.103488527459021, -8.61035637536397 ], [ 116.103488527459021, -8.61008141257353 ], [ 116.103763067188524, -8.61008141257353 ], [ 116.103763067188524, -8.609531486992648 ], [ 116.104037606918027, -8.609531486992648 ], [ 116.104037606918027, -8.609256524202205 ], [ 116.104312146647544, -8.609256524202205 ], [ 116.104312146647544, -8.608706598621323 ], [ 116.104586686377047, -8.608706598621323 ], [ 116.104586686377047, -8.608431635830883 ], [ 116.104861226106564, -8.608431635830883 ], [ 116.104861226106564, -8.60788171025 ], [ 116.105135765836067, -8.60788171025 ], [ 116.105135765836067, -8.60760674745956 ], [ 116.10541030556557, -8.60760674745956 ], [ 116.10541030556557, -8.607331784669118 ], [ 116.10595938502459, -8.607331784669118 ], [ 116.10595938502459, -8.607056821878677 ], [ 116.106233924754093, -8.607056821878677 ], [ 116.106233924754093, -8.606781859088235 ], [ 116.106508464483611, -8.606781859088235 ], [ 116.106508464483611, -8.606506896297795 ], [ 116.106783004213113, -8.606506896297795 ], [ 116.106783004213113, -8.606231933507352 ], [ 116.107057543942631, -8.606231933507352 ], [ 116.107057543942631, -8.605956970716912 ], [ 116.107332083672134, -8.605956970716912 ], [ 116.107332083672134, -8.60568200792647 ], [ 116.107606623401637, -8.60568200792647 ], [ 116.107606623401637, -8.604582156764707 ], [ 116.107881163131154, -8.604582156764707 ], [ 116.107881163131154, -8.603482305602942 ], [ 116.108155702860657, -8.603482305602942 ], [ 116.108155702860657, -8.602657417231617 ], [ 116.10843024259016, -8.602657417231617 ], [ 116.10843024259016, -8.601557566069854 ], [ 116.108704782319677, -8.601557566069854 ], [ 116.108704782319677, -8.601282603279412 ], [ 116.10843024259016, -8.601282603279412 ], [ 116.10843024259016, -8.601007640488971 ], [ 116.108155702860657, -8.601007640488971 ], [ 116.108155702860657, -8.600457714908089 ], [ 116.107881163131154, -8.600457714908089 ], [ 116.107881163131154, -8.599907789327206 ], [ 116.107606623401637, -8.599907789327206 ], [ 116.107606623401637, -8.599357863746324 ], [ 116.107332083672134, -8.599357863746324 ], [ 116.107332083672134, -8.599082900955882 ], [ 116.107057543942631, -8.599082900955882 ], [ 116.107057543942631, -8.598532975375001 ], [ 116.106783004213113, -8.598532975375001 ], [ 116.106783004213113, -8.597983049794118 ], [ 116.106508464483611, -8.597983049794118 ], [ 116.106508464483611, -8.597433124213236 ], [ 116.106233924754093, -8.597433124213236 ], [ 116.106233924754093, -8.597158161422794 ], [ 116.10595938502459, -8.597158161422794 ], [ 116.10595938502459, -8.596883198632353 ], [ 116.10541030556557, -8.596883198632353 ], [ 116.10541030556557, -8.596608235841911 ], [ 116.105135765836067, -8.596608235841911 ], [ 116.105135765836067, -8.596333273051471 ], [ 116.104861226106564, -8.596333273051471 ], [ 116.104861226106564, -8.596058310261029 ], [ 116.104312146647544, -8.596058310261029 ], [ 116.104312146647544, -8.595783347470588 ], [ 116.104037606918027, -8.595783347470588 ], [ 116.104037606918027, -8.595508384680146 ], [ 116.103763067188524, -8.595508384680146 ], [ 116.103763067188524, -8.595233421889706 ], [ 116.103488527459021, -8.595233421889706 ], [ 116.103488527459021, -8.594958459099265 ], [ 116.103213987729504, -8.594958459099265 ], [ 116.103213987729504, -8.594683496308823 ], [ 116.102939448, -8.594683496308823 ], [ 116.102939448, -8.594408533518383 ], [ 116.100194050704914, -8.594408533518383 ], [ 116.100194050704914, -8.594133570727941 ], [ 116.099919510975411, -8.594133570727941 ], [ 116.099919510975411, -8.5938586079375 ], [ 116.099370431516391, -8.5938586079375 ], [ 116.099370431516391, -8.593583645147058 ], [ 116.098821352057371, -8.593583645147058 ], [ 116.098821352057371, -8.593308682356618 ], [ 116.097997732868848, -8.593308682356618 ], [ 116.097997732868848, -8.593033719566176 ], [ 116.097174113680325, -8.593033719566176 ], [ 116.097174113680325, -8.592758756775735 ], [ 116.096899573950822, -8.592758756775735 ], [ 116.096899573950822, -8.592483793985293 ], [ 116.097174113680325, -8.592483793985293 ], [ 116.097174113680325, -8.591933868404412 ], [ 116.097448653409842, -8.591933868404412 ], [ 116.097448653409842, -8.591108980033088 ], [ 116.097723193139345, -8.591108980033088 ], [ 116.097723193139345, -8.590559054452205 ], [ 116.097997732868848, -8.590559054452205 ], [ 116.097997732868848, -8.590009128871323 ], [ 116.098272272598365, -8.590009128871323 ], [ 116.098272272598365, -8.589734166080882 ], [ 116.097997732868848, -8.589734166080882 ], [ 116.097997732868848, -8.58945920329044 ], [ 116.098272272598365, -8.58945920329044 ], [ 116.098272272598365, -8.5891842405 ], [ 116.098546812327868, -8.5891842405 ], [ 116.098546812327868, -8.588359352128677 ], [ 116.098821352057371, -8.588359352128677 ], [ 116.098821352057371, -8.587809426547794 ], [ 116.099095891786888, -8.587809426547794 ], [ 116.099095891786888, -8.586159649805147 ], [ 116.098821352057371, -8.586159649805147 ], [ 116.098821352057371, -8.583959947481617 ], [ 116.098546812327868, -8.583959947481617 ], [ 116.098546812327868, -8.582585133529411 ], [ 116.099095891786888, -8.582585133529411 ], [ 116.099095891786888, -8.582310170738971 ], [ 116.099644971245908, -8.582310170738971 ], [ 116.099644971245908, -8.581760245158089 ], [ 116.099919510975411, -8.581760245158089 ], [ 116.099919510975411, -8.581210319577206 ], [ 116.100194050704914, -8.581210319577206 ], [ 116.100194050704914, -8.580935356786764 ], [ 116.101292209622954, -8.580935356786764 ], [ 116.101292209622954, -8.580660393996324 ], [ 116.101566749352457, -8.580660393996324 ], [ 116.101566749352457, -8.580385431205881 ], [ 116.101841289081975, -8.580385431205881 ], [ 116.101841289081975, -8.579835505624999 ], [ 116.102115828811478, -8.579835505624999 ], [ 116.102115828811478, -8.579285580044118 ], [ 116.102390368540981, -8.579285580044118 ], [ 116.102390368540981, -8.578460691672793 ], [ 116.102939448, -8.578460691672793 ], [ 116.102939448, -8.578185728882353 ], [ 116.103488527459021, -8.578185728882353 ], [ 116.103488527459021, -8.577910766091911 ], [ 116.103763067188524, -8.577910766091911 ], [ 116.103763067188524, -8.577635803301471 ], [ 116.104037606918027, -8.577635803301471 ], [ 116.104037606918027, -8.577360840511028 ], [ 116.104312146647544, -8.577360840511028 ], [ 116.104312146647544, -8.577085877720588 ], [ 116.104586686377047, -8.577085877720588 ], [ 116.104586686377047, -8.576810914930146 ], [ 116.104861226106564, -8.576810914930146 ], [ 116.104861226106564, -8.576535952139706 ], [ 116.105135765836067, -8.576535952139706 ], [ 116.105135765836067, -8.576260989349265 ], [ 116.10541030556557, -8.576260989349265 ], [ 116.10541030556557, -8.575436100977941 ], [ 116.105684845295087, -8.575436100977941 ], [ 116.105684845295087, -8.574886175397058 ], [ 116.10595938502459, -8.574886175397058 ], [ 116.10595938502459, -8.574336249816175 ], [ 116.106233924754093, -8.574336249816175 ], [ 116.106233924754093, -8.573511361444853 ], [ 116.10595938502459, -8.573511361444853 ], [ 116.10595938502459, -8.57268647307353 ], [ 116.105684845295087, -8.57268647307353 ], [ 116.105684845295087, -8.571861584702205 ], [ 116.10541030556557, -8.571861584702205 ], [ 116.10541030556557, -8.571586621911765 ], [ 116.105135765836067, -8.571586621911765 ], [ 116.105135765836067, -8.571311659121323 ], [ 116.103488527459021, -8.571311659121323 ], [ 116.103488527459021, -8.571036696330882 ], [ 116.102939448, -8.571036696330882 ], [ 116.102939448, -8.57076173354044 ], [ 116.102115828811478, -8.57076173354044 ], [ 116.102115828811478, -8.57048677075 ], [ 116.101841289081975, -8.57048677075 ], [ 116.101841289081975, -8.570211807959559 ], [ 116.101566749352457, -8.570211807959559 ], [ 116.101566749352457, -8.569936845169117 ], [ 116.101017669893437, -8.569936845169117 ], [ 116.101017669893437, -8.569661882378677 ], [ 116.100468590434431, -8.569661882378677 ], [ 116.100468590434431, -8.567462180055147 ], [ 116.100743130163934, -8.567462180055147 ], [ 116.100743130163934, -8.566637291683824 ], [ 116.100468590434431, -8.566637291683824 ], [ 116.100468590434431, -8.566362328893382 ], [ 116.100194050704914, -8.566362328893382 ], [ 116.100194050704914, -8.566087366102941 ], [ 116.099919510975411, -8.566087366102941 ], [ 116.099919510975411, -8.565812403312499 ], [ 116.099644971245908, -8.565812403312499 ], [ 116.099644971245908, -8.565537440522059 ], [ 116.099370431516391, -8.565537440522059 ], [ 116.099370431516391, -8.565262477731617 ], [ 116.099095891786888, -8.565262477731617 ], [ 116.099095891786888, -8.564987514941176 ], [ 116.098821352057371, -8.564987514941176 ], [ 116.098821352057371, -8.564712552150734 ], [ 116.098546812327868, -8.564712552150734 ], [ 116.098546812327868, -8.564437589360294 ], [ 116.098272272598365, -8.564437589360294 ], [ 116.098272272598365, -8.563887663779411 ], [ 116.097997732868848, -8.563887663779411 ], [ 116.097997732868848, -8.563612700988971 ], [ 116.097723193139345, -8.563612700988971 ], [ 116.097723193139345, -8.563337738198529 ], [ 116.097448653409842, -8.563337738198529 ], [ 116.097448653409842, -8.563062775408088 ], [ 116.097723193139345, -8.563062775408088 ], [ 116.097723193139345, -8.562512849827206 ], [ 116.097997732868848, -8.562512849827206 ], [ 116.097997732868848, -8.561687961455881 ], [ 116.098272272598365, -8.561687961455881 ], [ 116.098272272598365, -8.561138035875 ], [ 116.098546812327868, -8.561138035875 ], [ 116.098546812327868, -8.560313147503676 ], [ 116.098821352057371, -8.560313147503676 ], [ 116.098821352057371, -8.558388407970588 ], [ 116.099095891786888, -8.558388407970588 ], [ 116.099095891786888, -8.557838482389705 ], [ 116.099370431516391, -8.557838482389705 ], [ 116.099370431516391, -8.557288556808823 ], [ 116.099644971245908, -8.557288556808823 ], [ 116.099644971245908, -8.55673863122794 ], [ 116.099919510975411, -8.55673863122794 ], [ 116.099919510975411, -8.5564636684375 ], [ 116.100194050704914, -8.5564636684375 ], [ 116.100194050704914, -8.556188705647058 ], [ 116.101841289081975, -8.556188705647058 ], [ 116.101841289081975, -8.555913742856617 ], [ 116.103763067188524, -8.555913742856617 ], [ 116.103763067188524, -8.555638780066175 ], [ 116.10595938502459, -8.555638780066175 ], [ 116.10595938502459, -8.555363817275735 ], [ 116.1095284015082, -8.555363817275735 ] ] ], [ [ [ 116.139453232024593, -8.574061287025735 ], [ 116.13862961283607, -8.574061287025735 ], [ 116.13862961283607, -8.573786324235293 ], [ 116.13917869229509, -8.573786324235293 ], [ 116.13917869229509, -8.573511361444853 ], [ 116.139453232024593, -8.573511361444853 ], [ 116.139453232024593, -8.574061287025735 ] ] ], [ [ [ 116.135335136081977, -8.57268647307353 ], [ 116.13560967581148, -8.57268647307353 ], [ 116.13560967581148, -8.57296143586397 ], [ 116.135884215540983, -8.57296143586397 ], [ 116.135884215540983, -8.573236398654412 ], [ 116.1361587552705, -8.573236398654412 ], [ 116.1361587552705, -8.573511361444853 ], [ 116.13560967581148, -8.573511361444853 ], [ 116.13560967581148, -8.573236398654412 ], [ 116.135335136081977, -8.573236398654412 ], [ 116.135335136081977, -8.57296143586397 ], [ 116.13506059635246, -8.57296143586397 ], [ 116.13506059635246, -8.57268647307353 ], [ 116.13451151689344, -8.57268647307353 ], [ 116.13451151689344, -8.572411510283088 ], [ 116.135335136081977, -8.572411510283088 ], [ 116.135335136081977, -8.57268647307353 ] ] ] ] } },
{ "type": "Feature", "properties": { "fid": 3.0, "Skor_Eleva": 2 }, "geometry": { "type": "MultiPolygon", "coordinates": [ [ [ [ 116.152631139040992, -8.575986026558823 ], [ 116.152631139040992, -8.576260989349265 ], [ 116.152905678770495, -8.576260989349265 ], [ 116.152905678770495, -8.576535952139706 ], [ 116.153180218499998, -8.576535952139706 ], [ 116.153180218499998, -8.576810914930146 ], [ 116.153454758229515, -8.576810914930146 ], [ 116.153454758229515, -8.577085877720588 ], [ 116.153729297959018, -8.577085877720588 ], [ 116.153729297959018, -8.577360840511028 ], [ 116.154003837688535, -8.577360840511028 ], [ 116.154003837688535, -8.577635803301471 ], [ 116.154278377418038, -8.577635803301471 ], [ 116.154278377418038, -8.577910766091911 ], [ 116.154552917147541, -8.577910766091911 ], [ 116.154552917147541, -8.578185728882353 ], [ 116.154827456877058, -8.578185728882353 ], [ 116.154827456877058, -8.578460691672793 ], [ 116.155101996606561, -8.578460691672793 ], [ 116.155101996606561, -8.578735654463236 ], [ 116.155376536336064, -8.578735654463236 ], [ 116.155376536336064, -8.579010617253676 ], [ 116.155651076065581, -8.579010617253676 ], [ 116.155651076065581, -8.579285580044118 ], [ 116.155925615795084, -8.579285580044118 ], [ 116.155925615795084, -8.579560542834558 ], [ 116.156200155524601, -8.579560542834558 ], [ 116.156200155524601, -8.579835505624999 ], [ 116.156474695254104, -8.579835505624999 ], [ 116.156474695254104, -8.580110468415441 ], [ 116.156749234983607, -8.580110468415441 ], [ 116.156749234983607, -8.580385431205881 ], [ 116.157023774713124, -8.580385431205881 ], [ 116.157023774713124, -8.580660393996324 ], [ 116.157298314442627, -8.580660393996324 ], [ 116.157298314442627, -8.580935356786764 ], [ 116.15757285417213, -8.580935356786764 ], [ 116.15757285417213, -8.581210319577206 ], [ 116.157847393901648, -8.581210319577206 ], [ 116.157847393901648, -8.581485282367646 ], [ 116.158121933631151, -8.581485282367646 ], [ 116.158121933631151, -8.581760245158089 ], [ 116.158396473360668, -8.581760245158089 ], [ 116.158396473360668, -8.582035207948529 ], [ 116.158671013090171, -8.582035207948529 ], [ 116.158671013090171, -8.582310170738971 ], [ 116.158945552819674, -8.582310170738971 ], [ 116.158945552819674, -8.582585133529411 ], [ 116.159220092549191, -8.582585133529411 ], [ 116.159220092549191, -8.582860096319854 ], [ 116.159494632278694, -8.582860096319854 ], [ 116.159494632278694, -8.583135059110294 ], [ 116.159769172008197, -8.583135059110294 ], [ 116.159769172008197, -8.583410021900734 ], [ 116.160043711737714, -8.583410021900734 ], [ 116.160043711737714, -8.583684984691176 ], [ 116.160318251467217, -8.583684984691176 ], [ 116.160318251467217, -8.583959947481617 ], [ 116.16059279119672, -8.583959947481617 ], [ 116.16059279119672, -8.584234910272059 ], [ 116.160867330926237, -8.584234910272059 ], [ 116.160867330926237, -8.584509873062499 ], [ 116.16114187065574, -8.584509873062499 ], [ 116.16114187065574, -8.584784835852941 ], [ 116.161416410385257, -8.584784835852941 ], [ 116.161416410385257, -8.585059798643382 ], [ 116.161965489844263, -8.585059798643382 ], [ 116.161965489844263, -8.585334761433824 ], [ 116.16224002957378, -8.585334761433824 ], [ 116.16224002957378, -8.585609724224264 ], [ 116.162514569303283, -8.585609724224264 ], [ 116.162514569303283, -8.585884687014707 ], [ 116.162789109032786, -8.585884687014707 ], [ 116.162789109032786, -8.586159649805147 ], [ 116.163063648762304, -8.586159649805147 ], [ 116.163063648762304, -8.586434612595587 ], [ 116.163338188491807, -8.586434612595587 ], [ 116.163338188491807, -8.586709575386029 ], [ 116.163612728221324, -8.586709575386029 ], [ 116.163612728221324, -8.58698453817647 ], [ 116.163887267950827, -8.58698453817647 ], [ 116.163887267950827, -8.587259500966912 ], [ 116.16416180768033, -8.587259500966912 ], [ 116.16416180768033, -8.587534463757352 ], [ 116.164436347409847, -8.587534463757352 ], [ 116.164436347409847, -8.587809426547794 ], [ 116.16471088713935, -8.587809426547794 ], [ 116.16471088713935, -8.588084389338235 ], [ 116.164985426868853, -8.588084389338235 ], [ 116.164985426868853, -8.588359352128677 ], [ 116.16525996659837, -8.588359352128677 ], [ 116.16525996659837, -8.588634314919117 ], [ 116.165534506327873, -8.588634314919117 ], [ 116.165534506327873, -8.588909277709559 ], [ 116.165809046057376, -8.588909277709559 ], [ 116.165809046057376, -8.5891842405 ], [ 116.166083585786893, -8.5891842405 ], [ 116.166083585786893, -8.58945920329044 ], [ 116.166358125516396, -8.58945920329044 ], [ 116.166358125516396, -8.589734166080882 ], [ 116.166632665245913, -8.589734166080882 ], [ 116.166632665245913, -8.590009128871323 ], [ 116.166907204975416, -8.590009128871323 ], [ 116.166907204975416, -8.590284091661765 ], [ 116.167181744704919, -8.590284091661765 ], [ 116.167181744704919, -8.590559054452205 ], [ 116.167456284434436, -8.590559054452205 ], [ 116.167456284434436, -8.590834017242647 ], [ 116.167730824163939, -8.590834017242647 ], [ 116.167730824163939, -8.591108980033088 ], [ 116.168005363893442, -8.591108980033088 ], [ 116.168005363893442, -8.59138394282353 ], [ 116.16827990362296, -8.59138394282353 ], [ 116.16827990362296, -8.59165890561397 ], [ 116.168554443352463, -8.59165890561397 ], [ 116.168554443352463, -8.591933868404412 ], [ 116.16882898308198, -8.591933868404412 ], [ 116.16882898308198, -8.592208831194853 ], [ 116.169103522811483, -8.592208831194853 ], [ 116.169103522811483, -8.592483793985293 ], [ 116.169378062540986, -8.592483793985293 ], [ 116.169378062540986, -8.592758756775735 ], [ 116.169652602270503, -8.592758756775735 ], [ 116.169652602270503, -8.593033719566176 ], [ 116.169927142, -8.593033719566176 ], [ 116.169927142, -8.5938586079375 ], [ 116.169652602270503, -8.5938586079375 ], [ 116.169652602270503, -8.594133570727941 ], [ 116.169378062540986, -8.594133570727941 ], [ 116.169378062540986, -8.594408533518383 ], [ 116.169103522811483, -8.594408533518383 ], [ 116.169103522811483, -8.594683496308823 ], [ 116.16882898308198, -8.594683496308823 ], [ 116.16882898308198, -8.594958459099265 ], [ 116.168554443352463, -8.594958459099265 ], [ 116.168554443352463, -8.595233421889706 ], [ 116.16827990362296, -8.595233421889706 ], [ 116.16827990362296, -8.595508384680146 ], [ 116.168005363893442, -8.595508384680146 ], [ 116.168005363893442, -8.595783347470588 ], [ 116.167730824163939, -8.595783347470588 ], [ 116.167730824163939, -8.596058310261029 ], [ 116.167456284434436, -8.596058310261029 ], [ 116.167456284434436, -8.596333273051471 ], [ 116.166907204975416, -8.596333273051471 ], [ 116.166907204975416, -8.596608235841911 ], [ 116.166632665245913, -8.596608235841911 ], [ 116.166632665245913, -8.596883198632353 ], [ 116.166358125516396, -8.596883198632353 ], [ 116.166358125516396, -8.597158161422794 ], [ 116.166083585786893, -8.597158161422794 ], [ 116.166083585786893, -8.597433124213236 ], [ 116.165809046057376, -8.597433124213236 ], [ 116.165809046057376, -8.597708087003676 ], [ 116.165534506327873, -8.597708087003676 ], [ 116.165534506327873, -8.597983049794118 ], [ 116.164985426868853, -8.597983049794118 ], [ 116.164985426868853, -8.597708087003676 ], [ 116.16525996659837, -8.597708087003676 ], [ 116.16525996659837, -8.597433124213236 ], [ 116.165534506327873, -8.597433124213236 ], [ 116.165534506327873, -8.597158161422794 ], [ 116.165809046057376, -8.597158161422794 ], [ 116.165809046057376, -8.596883198632353 ], [ 116.165534506327873, -8.596883198632353 ], [ 116.165534506327873, -8.594958459099265 ], [ 116.16525996659837, -8.594958459099265 ], [ 116.16525996659837, -8.593033719566176 ], [ 116.164985426868853, -8.593033719566176 ], [ 116.164985426868853, -8.592483793985293 ], [ 116.16471088713935, -8.592483793985293 ], [ 116.16471088713935, -8.592208831194853 ], [ 116.164436347409847, -8.592208831194853 ], [ 116.164436347409847, -8.59165890561397 ], [ 116.16416180768033, -8.59165890561397 ], [ 116.16416180768033, -8.59138394282353 ], [ 116.163887267950827, -8.59138394282353 ], [ 116.163887267950827, -8.591108980033088 ], [ 116.163612728221324, -8.591108980033088 ], [ 116.163612728221324, -8.590559054452205 ], [ 116.163338188491807, -8.590559054452205 ], [ 116.163338188491807, -8.590009128871323 ], [ 116.163063648762304, -8.590009128871323 ], [ 116.163063648762304, -8.589734166080882 ], [ 116.162789109032786, -8.589734166080882 ], [ 116.162789109032786, -8.5891842405 ], [ 116.162514569303283, -8.5891842405 ], [ 116.162514569303283, -8.588909277709559 ], [ 116.16224002957378, -8.588909277709559 ], [ 116.16224002957378, -8.588359352128677 ], [ 116.161965489844263, -8.588359352128677 ], [ 116.161965489844263, -8.587809426547794 ], [ 116.16169095011476, -8.587809426547794 ], [ 116.16169095011476, -8.587534463757352 ], [ 116.161416410385257, -8.587534463757352 ], [ 116.161416410385257, -8.58698453817647 ], [ 116.16114187065574, -8.58698453817647 ], [ 116.16114187065574, -8.586434612595587 ], [ 116.160867330926237, -8.586434612595587 ], [ 116.160867330926237, -8.586159649805147 ], [ 116.16059279119672, -8.586159649805147 ], [ 116.16059279119672, -8.585609724224264 ], [ 116.160318251467217, -8.585609724224264 ], [ 116.160318251467217, -8.585334761433824 ], [ 116.160043711737714, -8.585334761433824 ], [ 116.160043711737714, -8.584784835852941 ], [ 116.159769172008197, -8.584784835852941 ], [ 116.159769172008197, -8.584509873062499 ], [ 116.159494632278694, -8.584509873062499 ], [ 116.159494632278694, -8.584234910272059 ], [ 116.159220092549191, -8.584234910272059 ], [ 116.159220092549191, -8.583959947481617 ], [ 116.158945552819674, -8.583959947481617 ], [ 116.158945552819674, -8.583684984691176 ], [ 116.158671013090171, -8.583684984691176 ], [ 116.158671013090171, -8.583410021900734 ], [ 116.158396473360668, -8.583410021900734 ], [ 116.158396473360668, -8.583135059110294 ], [ 116.158121933631151, -8.583135059110294 ], [ 116.158121933631151, -8.582585133529411 ], [ 116.157847393901648, -8.582585133529411 ], [ 116.157847393901648, -8.582310170738971 ], [ 116.15757285417213, -8.582310170738971 ], [ 116.15757285417213, -8.582035207948529 ], [ 116.157298314442627, -8.582035207948529 ], [ 116.157298314442627, -8.581760245158089 ], [ 116.157023774713124, -8.581760245158089 ], [ 116.157023774713124, -8.581485282367646 ], [ 116.156749234983607, -8.581485282367646 ], [ 116.156749234983607, -8.581210319577206 ], [ 116.156474695254104, -8.581210319577206 ], [ 116.156474695254104, -8.580935356786764 ], [ 116.156200155524601, -8.580935356786764 ], [ 116.156200155524601, -8.580385431205881 ], [ 116.155925615795084, -8.580385431205881 ], [ 116.155925615795084, -8.580110468415441 ], [ 116.155651076065581, -8.580110468415441 ], [ 116.155651076065581, -8.579835505624999 ], [ 116.155376536336064, -8.579835505624999 ], [ 116.155376536336064, -8.579560542834558 ], [ 116.155101996606561, -8.579560542834558 ], [ 116.155101996606561, -8.579285580044118 ], [ 116.154827456877058, -8.579285580044118 ], [ 116.154827456877058, -8.579010617253676 ], [ 116.154552917147541, -8.579010617253676 ], [ 116.154552917147541, -8.578735654463236 ], [ 116.154278377418038, -8.578735654463236 ], [ 116.154278377418038, -8.578460691672793 ], [ 116.154003837688535, -8.578460691672793 ], [ 116.154003837688535, -8.577910766091911 ], [ 116.153729297959018, -8.577910766091911 ], [ 116.153729297959018, -8.577635803301471 ], [ 116.153454758229515, -8.577635803301471 ], [ 116.153454758229515, -8.577360840511028 ], [ 116.153180218499998, -8.577360840511028 ], [ 116.153180218499998, -8.577085877720588 ], [ 116.152905678770495, -8.577085877720588 ], [ 116.152905678770495, -8.576810914930146 ], [ 116.152631139040992, -8.576810914930146 ], [ 116.152631139040992, -8.576535952139706 ], [ 116.152356599311474, -8.576535952139706 ], [ 116.152356599311474, -8.576260989349265 ], [ 116.152082059581971, -8.576260989349265 ], [ 116.152082059581971, -8.575711063768383 ], [ 116.152356599311474, -8.575711063768383 ], [ 116.152356599311474, -8.575986026558823 ], [ 116.152631139040992, -8.575986026558823 ] ] ], [ [ [ 116.152082059581971, -8.575436100977941 ], [ 116.152082059581971, -8.575711063768383 ], [ 116.151807519852468, -8.575711063768383 ], [ 116.151807519852468, -8.575436100977941 ], [ 116.152082059581971, -8.575436100977941 ] ] ], [ [ [ 116.151532980122951, -8.575436100977941 ], [ 116.151532980122951, -8.5751611381875 ], [ 116.151807519852468, -8.5751611381875 ], [ 116.151807519852468, -8.575436100977941 ], [ 116.151532980122951, -8.575436100977941 ] ] ], [ [ [ 116.151532980122951, -8.574886175397058 ], [ 116.151532980122951, -8.5751611381875 ], [ 116.151258440393448, -8.5751611381875 ], [ 116.151258440393448, -8.574886175397058 ], [ 116.151532980122951, -8.574886175397058 ] ] ], [ [ [ 116.150983900663945, -8.574886175397058 ], [ 116.150983900663945, -8.574611212606618 ], [ 116.151258440393448, -8.574611212606618 ], [ 116.151258440393448, -8.574886175397058 ], [ 116.150983900663945, -8.574886175397058 ] ] ], [ [ [ 116.150983900663945, -8.574336249816175 ], [ 116.150983900663945, -8.574611212606618 ], [ 116.150709360934428, -8.574611212606618 ], [ 116.150709360934428, -8.574336249816175 ], [ 116.150983900663945, -8.574336249816175 ] ] ], [ [ [ 116.150434821204925, -8.574336249816175 ], [ 116.150434821204925, -8.574061287025735 ], [ 116.150709360934428, -8.574061287025735 ], [ 116.150709360934428, -8.574336249816175 ], [ 116.150434821204925, -8.574336249816175 ] ] ], [ [ [ 116.150434821204925, -8.573786324235293 ], [ 116.150434821204925, -8.574061287025735 ], [ 116.150160281475408, -8.574061287025735 ], [ 116.150160281475408, -8.573786324235293 ], [ 116.150434821204925, -8.573786324235293 ] ] ] ] } }
]
}
